<?xml version="1.0" encoding="UTF-8"?>
<gpx xmlns:xsi="http://www.w3.org/2001/XMLSchema-instance" xsi:schemaLocation="http://www.topografix.com/GPX/1/1 http://www.topografix.com/GPX/1/1/gpx.xsd" creator="StravaGPX" version="1.1" xmlns="http://www.topografix.com/GPX/1/1">
 <metadata>
  <time>2024-07-02T15:28:32Z</time>
 </metadata>
 <trk>
  <name>CW2 afternoon alone</name>
  <type>ebikeride</type>
  <trkseg>
   <trkpt lat="52.8335470" lon="-6.9266110">
    <ele>51.2</ele>
    <time>2024-07-02T15:28:32Z</time>
   </trkpt>
   <trkpt lat="52.8335550" lon="-6.9266340">
    <ele>51.2</ele>
    <time>2024-07-02T15:28:33Z</time>
   </trkpt>
   <trkpt lat="52.8335650" lon="-6.9266530">
    <ele>51.2</ele>
    <time>2024-07-02T15:28:34Z</time>
   </trkpt>
   <trkpt lat="52.8335740" lon="-6.9266730">
    <ele>51.2</ele>
    <time>2024-07-02T15:28:35Z</time>
   </trkpt>
   <trkpt lat="52.8335840" lon="-6.9266930">
    <ele>51.2</ele>
    <time>2024-07-02T15:28:36Z</time>
   </trkpt>
   <trkpt lat="52.8335930" lon="-6.9267130">
    <ele>51.2</ele>
    <time>2024-07-02T15:28:37Z</time>
   </trkpt>
   <trkpt lat="52.8336020" lon="-6.9267330">
    <ele>51.1</ele>
    <time>2024-07-02T15:28:38Z</time>
   </trkpt>
   <trkpt lat="52.8336120" lon="-6.9267520">
    <ele>51.1</ele>
    <time>2024-07-02T15:28:40Z</time>
   </trkpt>
   <trkpt lat="52.8336210" lon="-6.9267720">
    <ele>51.1</ele>
    <time>2024-07-02T15:28:41Z</time>
   </trkpt>
   <trkpt lat="52.8336310" lon="-6.9267920">
    <ele>51.2</ele>
    <time>2024-07-02T15:28:42Z</time>
   </trkpt>
   <trkpt lat="52.8336400" lon="-6.9268120">
    <ele>51.2</ele>
    <time>2024-07-02T15:28:43Z</time>
   </trkpt>
   <trkpt lat="52.8336810" lon="-6.9268790">
    <ele>51.2</ele>
    <time>2024-07-02T15:28:44Z</time>
   </trkpt>
   <trkpt lat="52.8336830" lon="-6.9268830">
    <ele>51.2</ele>
    <time>2024-07-02T15:28:45Z</time>
   </trkpt>
   <trkpt lat="52.8336820" lon="-6.9268840">
    <ele>51.2</ele>
    <time>2024-07-02T15:28:46Z</time>
   </trkpt>
   <trkpt lat="52.8336820" lon="-6.9268860">
    <ele>51.2</ele>
    <time>2024-07-02T15:28:47Z</time>
   </trkpt>
   <trkpt lat="52.8336810" lon="-6.9268880">
    <ele>51.2</ele>
    <time>2024-07-02T15:28:48Z</time>
   </trkpt>
   <trkpt lat="52.8336800" lon="-6.9268890">
    <ele>51.2</ele>
    <time>2024-07-02T15:28:49Z</time>
   </trkpt>
   <trkpt lat="52.8336800" lon="-6.9268920">
    <ele>51.2</ele>
    <time>2024-07-02T15:28:50Z</time>
   </trkpt>
   <trkpt lat="52.8336800" lon="-6.9268960">
    <ele>51.2</ele>
    <time>2024-07-02T15:28:51Z</time>
   </trkpt>
   <trkpt lat="52.8336800" lon="-6.9269000">
    <ele>51.2</ele>
    <time>2024-07-02T15:28:52Z</time>
   </trkpt>
   <trkpt lat="52.8336820" lon="-6.9269040">
    <ele>51.2</ele>
    <time>2024-07-02T15:28:53Z</time>
   </trkpt>
   <trkpt lat="52.8336840" lon="-6.9269040">
    <ele>51.2</ele>
    <time>2024-07-02T15:28:54Z</time>
   </trkpt>
   <trkpt lat="52.8336850" lon="-6.9269040">
    <ele>51.2</ele>
    <time>2024-07-02T15:28:55Z</time>
   </trkpt>
   <trkpt lat="52.8336890" lon="-6.9269060">
    <ele>51.2</ele>
    <time>2024-07-02T15:28:56Z</time>
   </trkpt>
   <trkpt lat="52.8336920" lon="-6.9269080">
    <ele>51.2</ele>
    <time>2024-07-02T15:28:57Z</time>
   </trkpt>
   <trkpt lat="52.8336940" lon="-6.9269090">
    <ele>51.2</ele>
    <time>2024-07-02T15:28:58Z</time>
   </trkpt>
   <trkpt lat="52.8336950" lon="-6.9269090">
    <ele>51.2</ele>
    <time>2024-07-02T15:28:59Z</time>
   </trkpt>
   <trkpt lat="52.8336980" lon="-6.9269070">
    <ele>51.2</ele>
    <time>2024-07-02T15:29:00Z</time>
   </trkpt>
   <trkpt lat="52.8336990" lon="-6.9269070">
    <ele>51.2</ele>
    <time>2024-07-02T15:29:01Z</time>
   </trkpt>
   <trkpt lat="52.8337010" lon="-6.9269070">
    <ele>51.2</ele>
    <time>2024-07-02T15:29:02Z</time>
   </trkpt>
   <trkpt lat="52.8337020" lon="-6.9269070">
    <ele>51.2</ele>
    <time>2024-07-02T15:29:03Z</time>
   </trkpt>
   <trkpt lat="52.8337030" lon="-6.9269060">
    <ele>51.2</ele>
    <time>2024-07-02T15:29:04Z</time>
   </trkpt>
   <trkpt lat="52.8337050" lon="-6.9269050">
    <ele>51.2</ele>
    <time>2024-07-02T15:29:05Z</time>
   </trkpt>
   <trkpt lat="52.8337060" lon="-6.9269060">
    <ele>51.2</ele>
    <time>2024-07-02T15:29:06Z</time>
   </trkpt>
   <trkpt lat="52.8337060" lon="-6.9269050">
    <ele>51.2</ele>
    <time>2024-07-02T15:29:07Z</time>
   </trkpt>
   <trkpt lat="52.8337070" lon="-6.9269050">
    <ele>51.2</ele>
    <time>2024-07-02T15:29:08Z</time>
   </trkpt>
   <trkpt lat="52.8337080" lon="-6.9269040">
    <ele>51.2</ele>
    <time>2024-07-02T15:29:09Z</time>
   </trkpt>
   <trkpt lat="52.8337100" lon="-6.9269050">
    <ele>51.2</ele>
    <time>2024-07-02T15:29:10Z</time>
   </trkpt>
   <trkpt lat="52.8337130" lon="-6.9269080">
    <ele>51.2</ele>
    <time>2024-07-02T15:29:11Z</time>
   </trkpt>
   <trkpt lat="52.8337170" lon="-6.9269110">
    <ele>51.2</ele>
    <time>2024-07-02T15:29:12Z</time>
   </trkpt>
   <trkpt lat="52.8337210" lon="-6.9269130">
    <ele>51.2</ele>
    <time>2024-07-02T15:29:13Z</time>
   </trkpt>
   <trkpt lat="52.8337230" lon="-6.9269140">
    <ele>51.2</ele>
    <time>2024-07-02T15:29:14Z</time>
   </trkpt>
   <trkpt lat="52.8337270" lon="-6.9269190">
    <ele>51.2</ele>
    <time>2024-07-02T15:29:15Z</time>
   </trkpt>
   <trkpt lat="52.8337280" lon="-6.9269200">
    <ele>51.2</ele>
    <time>2024-07-02T15:29:16Z</time>
   </trkpt>
   <trkpt lat="52.8337300" lon="-6.9269220">
    <ele>51.2</ele>
    <time>2024-07-02T15:29:17Z</time>
   </trkpt>
   <trkpt lat="52.8337310" lon="-6.9269200">
    <ele>51.2</ele>
    <time>2024-07-02T15:29:18Z</time>
   </trkpt>
   <trkpt lat="52.8337320" lon="-6.9269170">
    <ele>51.2</ele>
    <time>2024-07-02T15:29:19Z</time>
   </trkpt>
   <trkpt lat="52.8337320" lon="-6.9269140">
    <ele>51.2</ele>
    <time>2024-07-02T15:29:20Z</time>
   </trkpt>
   <trkpt lat="52.8337330" lon="-6.9269110">
    <ele>51.2</ele>
    <time>2024-07-02T15:29:21Z</time>
   </trkpt>
   <trkpt lat="52.8337330" lon="-6.9269080">
    <ele>51.2</ele>
    <time>2024-07-02T15:29:22Z</time>
   </trkpt>
   <trkpt lat="52.8337340" lon="-6.9269050">
    <ele>51.2</ele>
    <time>2024-07-02T15:29:23Z</time>
   </trkpt>
   <trkpt lat="52.8337340" lon="-6.9269020">
    <ele>51.2</ele>
    <time>2024-07-02T15:29:24Z</time>
   </trkpt>
   <trkpt lat="52.8337350" lon="-6.9268990">
    <ele>51.2</ele>
    <time>2024-07-02T15:29:25Z</time>
   </trkpt>
   <trkpt lat="52.8337350" lon="-6.9268960">
    <ele>51.2</ele>
    <time>2024-07-02T15:29:26Z</time>
   </trkpt>
   <trkpt lat="52.8337360" lon="-6.9268930">
    <ele>51.2</ele>
    <time>2024-07-02T15:29:27Z</time>
   </trkpt>
   <trkpt lat="52.8337360" lon="-6.9268900">
    <ele>51.2</ele>
    <time>2024-07-02T15:29:28Z</time>
   </trkpt>
   <trkpt lat="52.8337370" lon="-6.9268870">
    <ele>51.2</ele>
    <time>2024-07-02T15:29:29Z</time>
   </trkpt>
   <trkpt lat="52.8337370" lon="-6.9268840">
    <ele>51.2</ele>
    <time>2024-07-02T15:29:30Z</time>
   </trkpt>
   <trkpt lat="52.8337380" lon="-6.9268820">
    <ele>51.2</ele>
    <time>2024-07-02T15:29:32Z</time>
   </trkpt>
   <trkpt lat="52.8337380" lon="-6.9268790">
    <ele>51.2</ele>
    <time>2024-07-02T15:29:33Z</time>
   </trkpt>
   <trkpt lat="52.8337390" lon="-6.9268760">
    <ele>51.2</ele>
    <time>2024-07-02T15:29:34Z</time>
   </trkpt>
   <trkpt lat="52.8337390" lon="-6.9268730">
    <ele>51.2</ele>
    <time>2024-07-02T15:29:35Z</time>
   </trkpt>
   <trkpt lat="52.8337400" lon="-6.9268700">
    <ele>51.2</ele>
    <time>2024-07-02T15:29:36Z</time>
   </trkpt>
   <trkpt lat="52.8337410" lon="-6.9268670">
    <ele>51.2</ele>
    <time>2024-07-02T15:29:37Z</time>
   </trkpt>
   <trkpt lat="52.8337410" lon="-6.9268640">
    <ele>51.2</ele>
    <time>2024-07-02T15:29:38Z</time>
   </trkpt>
   <trkpt lat="52.8337420" lon="-6.9268610">
    <ele>51.2</ele>
    <time>2024-07-02T15:29:39Z</time>
   </trkpt>
   <trkpt lat="52.8337420" lon="-6.9268580">
    <ele>51.2</ele>
    <time>2024-07-02T15:29:40Z</time>
   </trkpt>
   <trkpt lat="52.8337430" lon="-6.9268550">
    <ele>51.2</ele>
    <time>2024-07-02T15:29:41Z</time>
   </trkpt>
   <trkpt lat="52.8337430" lon="-6.9268520">
    <ele>51.2</ele>
    <time>2024-07-02T15:29:42Z</time>
   </trkpt>
   <trkpt lat="52.8337440" lon="-6.9268490">
    <ele>51.2</ele>
    <time>2024-07-02T15:29:44Z</time>
   </trkpt>
   <trkpt lat="52.8337440" lon="-6.9268470">
    <ele>51.2</ele>
    <time>2024-07-02T15:29:45Z</time>
   </trkpt>
   <trkpt lat="52.8337450" lon="-6.9268440">
    <ele>51.2</ele>
    <time>2024-07-02T15:29:46Z</time>
   </trkpt>
   <trkpt lat="52.8337450" lon="-6.9268360">
    <ele>51.2</ele>
    <time>2024-07-02T15:29:47Z</time>
   </trkpt>
   <trkpt lat="52.8337470" lon="-6.9268280">
    <ele>51.2</ele>
    <time>2024-07-02T15:29:48Z</time>
   </trkpt>
   <trkpt lat="52.8337470" lon="-6.9268210">
    <ele>51.2</ele>
    <time>2024-07-02T15:29:49Z</time>
   </trkpt>
   <trkpt lat="52.8337470" lon="-6.9268170">
    <ele>51.2</ele>
    <time>2024-07-02T15:29:50Z</time>
   </trkpt>
   <trkpt lat="52.8337460" lon="-6.9268130">
    <ele>51.2</ele>
    <time>2024-07-02T15:29:51Z</time>
   </trkpt>
   <trkpt lat="52.8337450" lon="-6.9268080">
    <ele>51.2</ele>
    <time>2024-07-02T15:29:52Z</time>
   </trkpt>
   <trkpt lat="52.8337440" lon="-6.9268030">
    <ele>51.2</ele>
    <time>2024-07-02T15:29:53Z</time>
   </trkpt>
   <trkpt lat="52.8337420" lon="-6.9267970">
    <ele>51.2</ele>
    <time>2024-07-02T15:29:54Z</time>
   </trkpt>
   <trkpt lat="52.8337400" lon="-6.9267970">
    <ele>51.2</ele>
    <time>2024-07-02T15:29:55Z</time>
   </trkpt>
   <trkpt lat="52.8337380" lon="-6.9267970">
    <ele>51.2</ele>
    <time>2024-07-02T15:29:56Z</time>
   </trkpt>
   <trkpt lat="52.8337360" lon="-6.9267970">
    <ele>51.2</ele>
    <time>2024-07-02T15:29:57Z</time>
   </trkpt>
   <trkpt lat="52.8337340" lon="-6.9267980">
    <ele>51.2</ele>
    <time>2024-07-02T15:29:58Z</time>
   </trkpt>
   <trkpt lat="52.8337320" lon="-6.9267980">
    <ele>51.2</ele>
    <time>2024-07-02T15:29:59Z</time>
   </trkpt>
   <trkpt lat="52.8337300" lon="-6.9267980">
    <ele>51.2</ele>
    <time>2024-07-02T15:30:00Z</time>
   </trkpt>
   <trkpt lat="52.8337280" lon="-6.9267980">
    <ele>51.2</ele>
    <time>2024-07-02T15:30:01Z</time>
   </trkpt>
   <trkpt lat="52.8337260" lon="-6.9267990">
    <ele>51.2</ele>
    <time>2024-07-02T15:30:02Z</time>
   </trkpt>
   <trkpt lat="52.8337240" lon="-6.9267990">
    <ele>51.2</ele>
    <time>2024-07-02T15:30:03Z</time>
   </trkpt>
   <trkpt lat="52.8337220" lon="-6.9267990">
    <ele>51.2</ele>
    <time>2024-07-02T15:30:04Z</time>
   </trkpt>
   <trkpt lat="52.8337210" lon="-6.9268000">
    <ele>51.2</ele>
    <time>2024-07-02T15:30:05Z</time>
   </trkpt>
   <trkpt lat="52.8337190" lon="-6.9268000">
    <ele>51.2</ele>
    <time>2024-07-02T15:30:06Z</time>
   </trkpt>
   <trkpt lat="52.8337170" lon="-6.9268000">
    <ele>51.2</ele>
    <time>2024-07-02T15:30:07Z</time>
   </trkpt>
   <trkpt lat="52.8337150" lon="-6.9268000">
    <ele>51.2</ele>
    <time>2024-07-02T15:30:08Z</time>
   </trkpt>
   <trkpt lat="52.8337130" lon="-6.9268010">
    <ele>51.2</ele>
    <time>2024-07-02T15:30:09Z</time>
   </trkpt>
   <trkpt lat="52.8337110" lon="-6.9268010">
    <ele>51.2</ele>
    <time>2024-07-02T15:30:10Z</time>
   </trkpt>
   <trkpt lat="52.8337090" lon="-6.9268010">
    <ele>51.2</ele>
    <time>2024-07-02T15:30:11Z</time>
   </trkpt>
   <trkpt lat="52.8337070" lon="-6.9268020">
    <ele>51.2</ele>
    <time>2024-07-02T15:30:12Z</time>
   </trkpt>
   <trkpt lat="52.8337050" lon="-6.9268020">
    <ele>51.2</ele>
    <time>2024-07-02T15:30:13Z</time>
   </trkpt>
   <trkpt lat="52.8337030" lon="-6.9268020">
    <ele>51.2</ele>
    <time>2024-07-02T15:30:14Z</time>
   </trkpt>
   <trkpt lat="52.8337010" lon="-6.9268020">
    <ele>51.2</ele>
    <time>2024-07-02T15:30:15Z</time>
   </trkpt>
   <trkpt lat="52.8336990" lon="-6.9268030">
    <ele>51.2</ele>
    <time>2024-07-02T15:30:16Z</time>
   </trkpt>
   <trkpt lat="52.8336970" lon="-6.9268030">
    <ele>51.2</ele>
    <time>2024-07-02T15:30:17Z</time>
   </trkpt>
   <trkpt lat="52.8336950" lon="-6.9268030">
    <ele>51.2</ele>
    <time>2024-07-02T15:30:18Z</time>
   </trkpt>
   <trkpt lat="52.8336930" lon="-6.9268040">
    <ele>51.2</ele>
    <time>2024-07-02T15:30:19Z</time>
   </trkpt>
   <trkpt lat="52.8336910" lon="-6.9268040">
    <ele>51.2</ele>
    <time>2024-07-02T15:30:20Z</time>
   </trkpt>
   <trkpt lat="52.8336890" lon="-6.9268040">
    <ele>51.3</ele>
    <time>2024-07-02T15:30:21Z</time>
   </trkpt>
   <trkpt lat="52.8336880" lon="-6.9268040">
    <ele>51.3</ele>
    <time>2024-07-02T15:30:22Z</time>
   </trkpt>
   <trkpt lat="52.8336860" lon="-6.9268050">
    <ele>51.3</ele>
    <time>2024-07-02T15:30:23Z</time>
   </trkpt>
   <trkpt lat="52.8336840" lon="-6.9268050">
    <ele>51.3</ele>
    <time>2024-07-02T15:30:24Z</time>
   </trkpt>
   <trkpt lat="52.8336820" lon="-6.9268050">
    <ele>51.3</ele>
    <time>2024-07-02T15:30:25Z</time>
   </trkpt>
   <trkpt lat="52.8336800" lon="-6.9268060">
    <ele>51.3</ele>
    <time>2024-07-02T15:30:26Z</time>
   </trkpt>
   <trkpt lat="52.8336730" lon="-6.9268080">
    <ele>51.3</ele>
    <time>2024-07-02T15:30:27Z</time>
   </trkpt>
   <trkpt lat="52.8336720" lon="-6.9268110">
    <ele>51.3</ele>
    <time>2024-07-02T15:30:28Z</time>
   </trkpt>
   <trkpt lat="52.8336730" lon="-6.9268110">
    <ele>51.3</ele>
    <time>2024-07-02T15:30:29Z</time>
   </trkpt>
   <trkpt lat="52.8336730" lon="-6.9268130">
    <ele>51.3</ele>
    <time>2024-07-02T15:30:30Z</time>
   </trkpt>
   <trkpt lat="52.8336730" lon="-6.9268170">
    <ele>51.3</ele>
    <time>2024-07-02T15:30:31Z</time>
   </trkpt>
   <trkpt lat="52.8336730" lon="-6.9268180">
    <ele>51.3</ele>
    <time>2024-07-02T15:30:32Z</time>
   </trkpt>
   <trkpt lat="52.8336740" lon="-6.9268190">
    <ele>51.3</ele>
    <time>2024-07-02T15:30:33Z</time>
   </trkpt>
   <trkpt lat="52.8336740" lon="-6.9268190">
    <ele>51.3</ele>
    <time>2024-07-02T15:30:34Z</time>
   </trkpt>
   <trkpt lat="52.8336740" lon="-6.9268190">
    <ele>51.3</ele>
    <time>2024-07-02T15:30:35Z</time>
   </trkpt>
   <trkpt lat="52.8336740" lon="-6.9268200">
    <ele>51.3</ele>
    <time>2024-07-02T15:30:36Z</time>
   </trkpt>
   <trkpt lat="52.8336750" lon="-6.9268190">
    <ele>51.3</ele>
    <time>2024-07-02T15:30:38Z</time>
   </trkpt>
   <trkpt lat="52.8336750" lon="-6.9268190">
    <ele>51.3</ele>
    <time>2024-07-02T15:30:39Z</time>
   </trkpt>
   <trkpt lat="52.8336760" lon="-6.9268190">
    <ele>51.3</ele>
    <time>2024-07-02T15:30:40Z</time>
   </trkpt>
   <trkpt lat="52.8336750" lon="-6.9268190">
    <ele>51.3</ele>
    <time>2024-07-02T15:30:41Z</time>
   </trkpt>
   <trkpt lat="52.8336750" lon="-6.9268190">
    <ele>51.3</ele>
    <time>2024-07-02T15:30:42Z</time>
   </trkpt>
   <trkpt lat="52.8336750" lon="-6.9268210">
    <ele>51.3</ele>
    <time>2024-07-02T15:30:43Z</time>
   </trkpt>
   <trkpt lat="52.8336750" lon="-6.9268220">
    <ele>51.3</ele>
    <time>2024-07-02T15:30:44Z</time>
   </trkpt>
   <trkpt lat="52.8336750" lon="-6.9268220">
    <ele>51.3</ele>
    <time>2024-07-02T15:30:45Z</time>
   </trkpt>
   <trkpt lat="52.8336750" lon="-6.9268220">
    <ele>51.3</ele>
    <time>2024-07-02T15:30:46Z</time>
   </trkpt>
   <trkpt lat="52.8336750" lon="-6.9268220">
    <ele>51.3</ele>
    <time>2024-07-02T15:30:47Z</time>
   </trkpt>
   <trkpt lat="52.8336750" lon="-6.9268220">
    <ele>51.3</ele>
    <time>2024-07-02T15:30:48Z</time>
   </trkpt>
   <trkpt lat="52.8336750" lon="-6.9268220">
    <ele>51.3</ele>
    <time>2024-07-02T15:30:49Z</time>
   </trkpt>
   <trkpt lat="52.8336750" lon="-6.9268220">
    <ele>51.3</ele>
    <time>2024-07-02T15:30:50Z</time>
   </trkpt>
   <trkpt lat="52.8336750" lon="-6.9268220">
    <ele>51.3</ele>
    <time>2024-07-02T15:30:51Z</time>
   </trkpt>
   <trkpt lat="52.8336750" lon="-6.9268220">
    <ele>51.3</ele>
    <time>2024-07-02T15:30:52Z</time>
   </trkpt>
   <trkpt lat="52.8336750" lon="-6.9268220">
    <ele>51.3</ele>
    <time>2024-07-02T15:30:53Z</time>
   </trkpt>
   <trkpt lat="52.8336750" lon="-6.9268220">
    <ele>51.3</ele>
    <time>2024-07-02T15:30:54Z</time>
   </trkpt>
   <trkpt lat="52.8336740" lon="-6.9268230">
    <ele>51.3</ele>
    <time>2024-07-02T15:30:55Z</time>
   </trkpt>
   <trkpt lat="52.8336750" lon="-6.9268230">
    <ele>51.3</ele>
    <time>2024-07-02T15:30:56Z</time>
   </trkpt>
   <trkpt lat="52.8336760" lon="-6.9268220">
    <ele>51.3</ele>
    <time>2024-07-02T15:30:57Z</time>
   </trkpt>
   <trkpt lat="52.8336750" lon="-6.9268220">
    <ele>51.3</ele>
    <time>2024-07-02T15:30:58Z</time>
   </trkpt>
   <trkpt lat="52.8336750" lon="-6.9268220">
    <ele>51.3</ele>
    <time>2024-07-02T15:30:59Z</time>
   </trkpt>
   <trkpt lat="52.8336750" lon="-6.9268220">
    <ele>51.3</ele>
    <time>2024-07-02T15:31:00Z</time>
   </trkpt>
   <trkpt lat="52.8336750" lon="-6.9268220">
    <ele>51.3</ele>
    <time>2024-07-02T15:31:01Z</time>
   </trkpt>
   <trkpt lat="52.8336780" lon="-6.9268020">
    <ele>51.3</ele>
    <time>2024-07-02T15:31:02Z</time>
   </trkpt>
   <trkpt lat="52.8336840" lon="-6.9268030">
    <ele>51.3</ele>
    <time>2024-07-02T15:31:03Z</time>
   </trkpt>
   <trkpt lat="52.8336930" lon="-6.9268090">
    <ele>51.3</ele>
    <time>2024-07-02T15:31:04Z</time>
   </trkpt>
   <trkpt lat="52.8336980" lon="-6.9268090">
    <ele>51.3</ele>
    <time>2024-07-02T15:31:05Z</time>
   </trkpt>
   <trkpt lat="52.8337000" lon="-6.9268110">
    <ele>51.3</ele>
    <time>2024-07-02T15:31:06Z</time>
   </trkpt>
   <trkpt lat="52.8337070" lon="-6.9268240">
    <ele>51.3</ele>
    <time>2024-07-02T15:31:07Z</time>
   </trkpt>
   <trkpt lat="52.8337160" lon="-6.9268340">
    <ele>51.3</ele>
    <time>2024-07-02T15:31:08Z</time>
   </trkpt>
   <trkpt lat="52.8337200" lon="-6.9268430">
    <ele>51.3</ele>
    <time>2024-07-02T15:31:09Z</time>
   </trkpt>
   <trkpt lat="52.8337220" lon="-6.9268530">
    <ele>51.3</ele>
    <time>2024-07-02T15:31:10Z</time>
   </trkpt>
   <trkpt lat="52.8337210" lon="-6.9268590">
    <ele>51.3</ele>
    <time>2024-07-02T15:31:11Z</time>
   </trkpt>
   <trkpt lat="52.8337190" lon="-6.9268630">
    <ele>51.3</ele>
    <time>2024-07-02T15:31:12Z</time>
   </trkpt>
   <trkpt lat="52.8337130" lon="-6.9268630">
    <ele>51.3</ele>
    <time>2024-07-02T15:31:13Z</time>
   </trkpt>
   <trkpt lat="52.8337140" lon="-6.9268670">
    <ele>51.3</ele>
    <time>2024-07-02T15:31:14Z</time>
   </trkpt>
   <trkpt lat="52.8337140" lon="-6.9268740">
    <ele>51.3</ele>
    <time>2024-07-02T15:31:15Z</time>
   </trkpt>
   <trkpt lat="52.8337130" lon="-6.9268800">
    <ele>51.3</ele>
    <time>2024-07-02T15:31:16Z</time>
   </trkpt>
   <trkpt lat="52.8337140" lon="-6.9268880">
    <ele>51.3</ele>
    <time>2024-07-02T15:31:17Z</time>
   </trkpt>
   <trkpt lat="52.8337140" lon="-6.9268960">
    <ele>51.3</ele>
    <time>2024-07-02T15:31:18Z</time>
   </trkpt>
   <trkpt lat="52.8337120" lon="-6.9269060">
    <ele>51.3</ele>
    <time>2024-07-02T15:31:19Z</time>
   </trkpt>
   <trkpt lat="52.8337100" lon="-6.9269120">
    <ele>51.3</ele>
    <time>2024-07-02T15:31:20Z</time>
   </trkpt>
   <trkpt lat="52.8337100" lon="-6.9269130">
    <ele>51.3</ele>
    <time>2024-07-02T15:31:21Z</time>
   </trkpt>
   <trkpt lat="52.8337100" lon="-6.9269130">
    <ele>51.3</ele>
    <time>2024-07-02T15:31:22Z</time>
   </trkpt>
   <trkpt lat="52.8337100" lon="-6.9269130">
    <ele>51.3</ele>
    <time>2024-07-02T15:31:23Z</time>
   </trkpt>
   <trkpt lat="52.8337100" lon="-6.9269130">
    <ele>51.3</ele>
    <time>2024-07-02T15:31:24Z</time>
   </trkpt>
   <trkpt lat="52.8337100" lon="-6.9269130">
    <ele>51.3</ele>
    <time>2024-07-02T15:31:25Z</time>
   </trkpt>
   <trkpt lat="52.8337100" lon="-6.9269130">
    <ele>51.3</ele>
    <time>2024-07-02T15:31:26Z</time>
   </trkpt>
   <trkpt lat="52.8337100" lon="-6.9269130">
    <ele>51.3</ele>
    <time>2024-07-02T15:31:27Z</time>
   </trkpt>
   <trkpt lat="52.8337100" lon="-6.9269130">
    <ele>51.3</ele>
    <time>2024-07-02T15:31:28Z</time>
   </trkpt>
   <trkpt lat="52.8337100" lon="-6.9269130">
    <ele>51.3</ele>
    <time>2024-07-02T15:31:29Z</time>
   </trkpt>
   <trkpt lat="52.8337100" lon="-6.9269130">
    <ele>51.3</ele>
    <time>2024-07-02T15:31:30Z</time>
   </trkpt>
   <trkpt lat="52.8337100" lon="-6.9269130">
    <ele>51.3</ele>
    <time>2024-07-02T15:31:31Z</time>
   </trkpt>
   <trkpt lat="52.8337100" lon="-6.9269130">
    <ele>51.3</ele>
    <time>2024-07-02T15:31:32Z</time>
   </trkpt>
   <trkpt lat="52.8337100" lon="-6.9269130">
    <ele>51.3</ele>
    <time>2024-07-02T15:31:33Z</time>
   </trkpt>
   <trkpt lat="52.8337100" lon="-6.9269130">
    <ele>51.3</ele>
    <time>2024-07-02T15:31:34Z</time>
   </trkpt>
   <trkpt lat="52.8337100" lon="-6.9269130">
    <ele>51.3</ele>
    <time>2024-07-02T15:31:35Z</time>
   </trkpt>
   <trkpt lat="52.8337100" lon="-6.9269130">
    <ele>51.3</ele>
    <time>2024-07-02T15:31:36Z</time>
   </trkpt>
   <trkpt lat="52.8337100" lon="-6.9269130">
    <ele>51.3</ele>
    <time>2024-07-02T15:31:37Z</time>
   </trkpt>
   <trkpt lat="52.8337100" lon="-6.9269130">
    <ele>51.3</ele>
    <time>2024-07-02T15:31:38Z</time>
   </trkpt>
   <trkpt lat="52.8337100" lon="-6.9269130">
    <ele>51.3</ele>
    <time>2024-07-02T15:31:39Z</time>
   </trkpt>
   <trkpt lat="52.8337100" lon="-6.9269130">
    <ele>51.3</ele>
    <time>2024-07-02T15:31:40Z</time>
   </trkpt>
   <trkpt lat="52.8337100" lon="-6.9269130">
    <ele>51.3</ele>
    <time>2024-07-02T15:31:41Z</time>
   </trkpt>
   <trkpt lat="52.8337100" lon="-6.9269130">
    <ele>51.3</ele>
    <time>2024-07-02T15:31:42Z</time>
   </trkpt>
   <trkpt lat="52.8337100" lon="-6.9269130">
    <ele>51.3</ele>
    <time>2024-07-02T15:31:43Z</time>
   </trkpt>
   <trkpt lat="52.8337100" lon="-6.9269130">
    <ele>51.3</ele>
    <time>2024-07-02T15:31:44Z</time>
   </trkpt>
   <trkpt lat="52.8337100" lon="-6.9269130">
    <ele>51.3</ele>
    <time>2024-07-02T15:31:45Z</time>
   </trkpt>
   <trkpt lat="52.8337100" lon="-6.9269130">
    <ele>51.3</ele>
    <time>2024-07-02T15:31:46Z</time>
   </trkpt>
   <trkpt lat="52.8337100" lon="-6.9269130">
    <ele>51.3</ele>
    <time>2024-07-02T15:31:47Z</time>
   </trkpt>
   <trkpt lat="52.8337100" lon="-6.9269130">
    <ele>51.3</ele>
    <time>2024-07-02T15:31:48Z</time>
   </trkpt>
   <trkpt lat="52.8337100" lon="-6.9269130">
    <ele>51.3</ele>
    <time>2024-07-02T15:31:49Z</time>
   </trkpt>
   <trkpt lat="52.8337100" lon="-6.9269130">
    <ele>51.3</ele>
    <time>2024-07-02T15:31:50Z</time>
   </trkpt>
   <trkpt lat="52.8337100" lon="-6.9269130">
    <ele>51.3</ele>
    <time>2024-07-02T15:31:51Z</time>
   </trkpt>
   <trkpt lat="52.8337100" lon="-6.9269130">
    <ele>51.3</ele>
    <time>2024-07-02T15:31:52Z</time>
   </trkpt>
   <trkpt lat="52.8337100" lon="-6.9269130">
    <ele>51.3</ele>
    <time>2024-07-02T15:31:53Z</time>
   </trkpt>
   <trkpt lat="52.8337100" lon="-6.9269130">
    <ele>51.3</ele>
    <time>2024-07-02T15:31:54Z</time>
   </trkpt>
   <trkpt lat="52.8337100" lon="-6.9269130">
    <ele>51.3</ele>
    <time>2024-07-02T15:31:55Z</time>
   </trkpt>
   <trkpt lat="52.8337100" lon="-6.9269130">
    <ele>51.3</ele>
    <time>2024-07-02T15:31:56Z</time>
   </trkpt>
   <trkpt lat="52.8337100" lon="-6.9269130">
    <ele>51.3</ele>
    <time>2024-07-02T15:31:57Z</time>
   </trkpt>
   <trkpt lat="52.8337100" lon="-6.9269130">
    <ele>51.3</ele>
    <time>2024-07-02T15:31:58Z</time>
   </trkpt>
   <trkpt lat="52.8337100" lon="-6.9269130">
    <ele>51.3</ele>
    <time>2024-07-02T15:31:59Z</time>
   </trkpt>
   <trkpt lat="52.8337100" lon="-6.9269130">
    <ele>51.3</ele>
    <time>2024-07-02T15:32:00Z</time>
   </trkpt>
   <trkpt lat="52.8337100" lon="-6.9269130">
    <ele>51.3</ele>
    <time>2024-07-02T15:32:01Z</time>
   </trkpt>
   <trkpt lat="52.8337240" lon="-6.9269020">
    <ele>51.3</ele>
    <time>2024-07-02T15:32:02Z</time>
   </trkpt>
   <trkpt lat="52.8337440" lon="-6.9268930">
    <ele>51.3</ele>
    <time>2024-07-02T15:32:03Z</time>
   </trkpt>
   <trkpt lat="52.8337760" lon="-6.9268960">
    <ele>51.3</ele>
    <time>2024-07-02T15:32:04Z</time>
   </trkpt>
   <trkpt lat="52.8337860" lon="-6.9268990">
    <ele>51.3</ele>
    <time>2024-07-02T15:32:05Z</time>
   </trkpt>
   <trkpt lat="52.8338000" lon="-6.9269100">
    <ele>51.3</ele>
    <time>2024-07-02T15:32:06Z</time>
   </trkpt>
   <trkpt lat="52.8338080" lon="-6.9269240">
    <ele>51.3</ele>
    <time>2024-07-02T15:32:07Z</time>
   </trkpt>
   <trkpt lat="52.8338100" lon="-6.9269320">
    <ele>51.3</ele>
    <time>2024-07-02T15:32:08Z</time>
   </trkpt>
   <trkpt lat="52.8338160" lon="-6.9269420">
    <ele>51.3</ele>
    <time>2024-07-02T15:32:09Z</time>
   </trkpt>
   <trkpt lat="52.8338190" lon="-6.9269460">
    <ele>51.3</ele>
    <time>2024-07-02T15:32:10Z</time>
   </trkpt>
   <trkpt lat="52.8338220" lon="-6.9269500">
    <ele>51.3</ele>
    <time>2024-07-02T15:32:11Z</time>
   </trkpt>
   <trkpt lat="52.8338240" lon="-6.9269540">
    <ele>51.3</ele>
    <time>2024-07-02T15:32:12Z</time>
   </trkpt>
   <trkpt lat="52.8338270" lon="-6.9269580">
    <ele>51.3</ele>
    <time>2024-07-02T15:32:13Z</time>
   </trkpt>
   <trkpt lat="52.8338300" lon="-6.9269620">
    <ele>51.3</ele>
    <time>2024-07-02T15:32:14Z</time>
   </trkpt>
   <trkpt lat="52.8338320" lon="-6.9269670">
    <ele>51.3</ele>
    <time>2024-07-02T15:32:15Z</time>
   </trkpt>
   <trkpt lat="52.8338350" lon="-6.9269710">
    <ele>51.3</ele>
    <time>2024-07-02T15:32:16Z</time>
   </trkpt>
   <trkpt lat="52.8338380" lon="-6.9269750">
    <ele>51.3</ele>
    <time>2024-07-02T15:32:17Z</time>
   </trkpt>
   <trkpt lat="52.8338400" lon="-6.9269790">
    <ele>51.3</ele>
    <time>2024-07-02T15:32:18Z</time>
   </trkpt>
   <trkpt lat="52.8338680" lon="-6.9269970">
    <ele>51.3</ele>
    <time>2024-07-02T15:32:19Z</time>
   </trkpt>
   <trkpt lat="52.8338770" lon="-6.9270030">
    <ele>51.2</ele>
    <time>2024-07-02T15:32:20Z</time>
   </trkpt>
   <trkpt lat="52.8339120" lon="-6.9270280">
    <ele>51.2</ele>
    <time>2024-07-02T15:32:21Z</time>
   </trkpt>
   <trkpt lat="52.8339240" lon="-6.9270390">
    <ele>51.2</ele>
    <time>2024-07-02T15:32:22Z</time>
   </trkpt>
   <trkpt lat="52.8339470" lon="-6.9270680">
    <ele>51.1</ele>
    <time>2024-07-02T15:32:23Z</time>
   </trkpt>
   <trkpt lat="52.8339690" lon="-6.9270960">
    <ele>51.1</ele>
    <time>2024-07-02T15:32:24Z</time>
   </trkpt>
   <trkpt lat="52.8339930" lon="-6.9271210">
    <ele>51.1</ele>
    <time>2024-07-02T15:32:25Z</time>
   </trkpt>
   <trkpt lat="52.8340230" lon="-6.9271560">
    <ele>51.1</ele>
    <time>2024-07-02T15:32:26Z</time>
   </trkpt>
   <trkpt lat="52.8340320" lon="-6.9271650">
    <ele>51.1</ele>
    <time>2024-07-02T15:32:27Z</time>
   </trkpt>
   <trkpt lat="52.8340460" lon="-6.9271750">
    <ele>51.1</ele>
    <time>2024-07-02T15:32:28Z</time>
   </trkpt>
   <trkpt lat="52.8340550" lon="-6.9271820">
    <ele>51.1</ele>
    <time>2024-07-02T15:32:29Z</time>
   </trkpt>
   <trkpt lat="52.8340600" lon="-6.9271850">
    <ele>51.1</ele>
    <time>2024-07-02T15:32:30Z</time>
   </trkpt>
   <trkpt lat="52.8340620" lon="-6.9271860">
    <ele>51.1</ele>
    <time>2024-07-02T15:32:31Z</time>
   </trkpt>
   <trkpt lat="52.8340650" lon="-6.9271900">
    <ele>51.1</ele>
    <time>2024-07-02T15:32:32Z</time>
   </trkpt>
   <trkpt lat="52.8340700" lon="-6.9271960">
    <ele>51.1</ele>
    <time>2024-07-02T15:32:33Z</time>
   </trkpt>
   <trkpt lat="52.8340760" lon="-6.9272070">
    <ele>51.1</ele>
    <time>2024-07-02T15:32:34Z</time>
   </trkpt>
   <trkpt lat="52.8340870" lon="-6.9272220">
    <ele>51.1</ele>
    <time>2024-07-02T15:32:35Z</time>
   </trkpt>
   <trkpt lat="52.8341140" lon="-6.9272550">
    <ele>51.1</ele>
    <time>2024-07-02T15:32:36Z</time>
   </trkpt>
   <trkpt lat="52.8341230" lon="-6.9272690">
    <ele>51.1</ele>
    <time>2024-07-02T15:32:37Z</time>
   </trkpt>
   <trkpt lat="52.8341520" lon="-6.9272970">
    <ele>51.2</ele>
    <time>2024-07-02T15:32:38Z</time>
   </trkpt>
   <trkpt lat="52.8341760" lon="-6.9273300">
    <ele>51.2</ele>
    <time>2024-07-02T15:32:39Z</time>
   </trkpt>
   <trkpt lat="52.8342040" lon="-6.9273760">
    <ele>51.3</ele>
    <time>2024-07-02T15:32:40Z</time>
   </trkpt>
   <trkpt lat="52.8342370" lon="-6.9274340">
    <ele>51.3</ele>
    <time>2024-07-02T15:32:41Z</time>
   </trkpt>
   <trkpt lat="52.8342750" lon="-6.9274980">
    <ele>51.4</ele>
    <time>2024-07-02T15:32:42Z</time>
   </trkpt>
   <trkpt lat="52.8343100" lon="-6.9275640">
    <ele>51.4</ele>
    <time>2024-07-02T15:32:43Z</time>
   </trkpt>
   <trkpt lat="52.8343410" lon="-6.9276230">
    <ele>51.4</ele>
    <time>2024-07-02T15:32:44Z</time>
   </trkpt>
   <trkpt lat="52.8343760" lon="-6.9276880">
    <ele>51.5</ele>
    <time>2024-07-02T15:32:45Z</time>
   </trkpt>
   <trkpt lat="52.8344160" lon="-6.9277570">
    <ele>51.5</ele>
    <time>2024-07-02T15:32:46Z</time>
   </trkpt>
   <trkpt lat="52.8344500" lon="-6.9278300">
    <ele>51.6</ele>
    <time>2024-07-02T15:32:47Z</time>
   </trkpt>
   <trkpt lat="52.8344810" lon="-6.9279040">
    <ele>51.6</ele>
    <time>2024-07-02T15:32:48Z</time>
   </trkpt>
   <trkpt lat="52.8345160" lon="-6.9279770">
    <ele>51.7</ele>
    <time>2024-07-02T15:32:49Z</time>
   </trkpt>
   <trkpt lat="52.8345480" lon="-6.9280450">
    <ele>51.8</ele>
    <time>2024-07-02T15:32:50Z</time>
   </trkpt>
   <trkpt lat="52.8345780" lon="-6.9281150">
    <ele>51.9</ele>
    <time>2024-07-02T15:32:51Z</time>
   </trkpt>
   <trkpt lat="52.8346050" lon="-6.9281900">
    <ele>52.0</ele>
    <time>2024-07-02T15:32:52Z</time>
   </trkpt>
   <trkpt lat="52.8346330" lon="-6.9282680">
    <ele>52.0</ele>
    <time>2024-07-02T15:32:53Z</time>
   </trkpt>
   <trkpt lat="52.8346680" lon="-6.9283340">
    <ele>52.1</ele>
    <time>2024-07-02T15:32:54Z</time>
   </trkpt>
   <trkpt lat="52.8347030" lon="-6.9284060">
    <ele>52.1</ele>
    <time>2024-07-02T15:32:55Z</time>
   </trkpt>
   <trkpt lat="52.8347340" lon="-6.9284890">
    <ele>52.1</ele>
    <time>2024-07-02T15:32:56Z</time>
   </trkpt>
   <trkpt lat="52.8347590" lon="-6.9285670">
    <ele>52.2</ele>
    <time>2024-07-02T15:32:57Z</time>
   </trkpt>
   <trkpt lat="52.8347810" lon="-6.9286420">
    <ele>52.2</ele>
    <time>2024-07-02T15:32:58Z</time>
   </trkpt>
   <trkpt lat="52.8348040" lon="-6.9287120">
    <ele>52.2</ele>
    <time>2024-07-02T15:32:59Z</time>
   </trkpt>
   <trkpt lat="52.8348270" lon="-6.9287730">
    <ele>52.3</ele>
    <time>2024-07-02T15:33:00Z</time>
   </trkpt>
   <trkpt lat="52.8348530" lon="-6.9288380">
    <ele>52.3</ele>
    <time>2024-07-02T15:33:01Z</time>
   </trkpt>
   <trkpt lat="52.8348740" lon="-6.9288930">
    <ele>52.3</ele>
    <time>2024-07-02T15:33:02Z</time>
   </trkpt>
   <trkpt lat="52.8348880" lon="-6.9289360">
    <ele>52.4</ele>
    <time>2024-07-02T15:33:03Z</time>
   </trkpt>
   <trkpt lat="52.8349110" lon="-6.9289900">
    <ele>52.4</ele>
    <time>2024-07-02T15:33:04Z</time>
   </trkpt>
   <trkpt lat="52.8349230" lon="-6.9290590">
    <ele>52.4</ele>
    <time>2024-07-02T15:33:05Z</time>
   </trkpt>
   <trkpt lat="52.8349300" lon="-6.9291410">
    <ele>52.4</ele>
    <time>2024-07-02T15:33:06Z</time>
   </trkpt>
   <trkpt lat="52.8349370" lon="-6.9292220">
    <ele>52.4</ele>
    <time>2024-07-02T15:33:07Z</time>
   </trkpt>
   <trkpt lat="52.8349450" lon="-6.9292990">
    <ele>52.4</ele>
    <time>2024-07-02T15:33:08Z</time>
   </trkpt>
   <trkpt lat="52.8349560" lon="-6.9293730">
    <ele>52.4</ele>
    <time>2024-07-02T15:33:09Z</time>
   </trkpt>
   <trkpt lat="52.8349640" lon="-6.9294480">
    <ele>52.3</ele>
    <time>2024-07-02T15:33:10Z</time>
   </trkpt>
   <trkpt lat="52.8349760" lon="-6.9295140">
    <ele>52.3</ele>
    <time>2024-07-02T15:33:11Z</time>
   </trkpt>
   <trkpt lat="52.8349870" lon="-6.9295730">
    <ele>52.2</ele>
    <time>2024-07-02T15:33:12Z</time>
   </trkpt>
   <trkpt lat="52.8349960" lon="-6.9296290">
    <ele>52.2</ele>
    <time>2024-07-02T15:33:13Z</time>
   </trkpt>
   <trkpt lat="52.8350080" lon="-6.9296880">
    <ele>52.1</ele>
    <time>2024-07-02T15:33:14Z</time>
   </trkpt>
   <trkpt lat="52.8350100" lon="-6.9297070">
    <ele>52.1</ele>
    <time>2024-07-02T15:33:15Z</time>
   </trkpt>
   <trkpt lat="52.8350220" lon="-6.9297650">
    <ele>52.1</ele>
    <time>2024-07-02T15:33:16Z</time>
   </trkpt>
   <trkpt lat="52.8350260" lon="-6.9297830">
    <ele>52.1</ele>
    <time>2024-07-02T15:33:17Z</time>
   </trkpt>
   <trkpt lat="52.8350310" lon="-6.9298330">
    <ele>52.1</ele>
    <time>2024-07-02T15:33:18Z</time>
   </trkpt>
   <trkpt lat="52.8350330" lon="-6.9298470">
    <ele>52.1</ele>
    <time>2024-07-02T15:33:19Z</time>
   </trkpt>
   <trkpt lat="52.8350370" lon="-6.9298670">
    <ele>52.0</ele>
    <time>2024-07-02T15:33:20Z</time>
   </trkpt>
   <trkpt lat="52.8350410" lon="-6.9298810">
    <ele>52.0</ele>
    <time>2024-07-02T15:33:21Z</time>
   </trkpt>
   <trkpt lat="52.8350410" lon="-6.9298960">
    <ele>52.0</ele>
    <time>2024-07-02T15:33:22Z</time>
   </trkpt>
   <trkpt lat="52.8350440" lon="-6.9299060">
    <ele>52.0</ele>
    <time>2024-07-02T15:33:23Z</time>
   </trkpt>
   <trkpt lat="52.8350490" lon="-6.9299230">
    <ele>52.0</ele>
    <time>2024-07-02T15:33:24Z</time>
   </trkpt>
   <trkpt lat="52.8350530" lon="-6.9299440">
    <ele>52.0</ele>
    <time>2024-07-02T15:33:25Z</time>
   </trkpt>
   <trkpt lat="52.8350680" lon="-6.9299890">
    <ele>51.9</ele>
    <time>2024-07-02T15:33:26Z</time>
   </trkpt>
   <trkpt lat="52.8350740" lon="-6.9300060">
    <ele>51.9</ele>
    <time>2024-07-02T15:33:27Z</time>
   </trkpt>
   <trkpt lat="52.8350900" lon="-6.9300680">
    <ele>51.8</ele>
    <time>2024-07-02T15:33:28Z</time>
   </trkpt>
   <trkpt lat="52.8351120" lon="-6.9301420">
    <ele>51.7</ele>
    <time>2024-07-02T15:33:29Z</time>
   </trkpt>
   <trkpt lat="52.8351340" lon="-6.9302180">
    <ele>51.6</ele>
    <time>2024-07-02T15:33:30Z</time>
   </trkpt>
   <trkpt lat="52.8351540" lon="-6.9303020">
    <ele>51.5</ele>
    <time>2024-07-02T15:33:31Z</time>
   </trkpt>
   <trkpt lat="52.8351630" lon="-6.9304060">
    <ele>51.3</ele>
    <time>2024-07-02T15:33:32Z</time>
   </trkpt>
   <trkpt lat="52.8351720" lon="-6.9305170">
    <ele>51.2</ele>
    <time>2024-07-02T15:33:33Z</time>
   </trkpt>
   <trkpt lat="52.8351870" lon="-6.9306230">
    <ele>51.1</ele>
    <time>2024-07-02T15:33:34Z</time>
   </trkpt>
   <trkpt lat="52.8352030" lon="-6.9307190">
    <ele>51.0</ele>
    <time>2024-07-02T15:33:35Z</time>
   </trkpt>
   <trkpt lat="52.8352220" lon="-6.9308040">
    <ele>50.9</ele>
    <time>2024-07-02T15:33:36Z</time>
   </trkpt>
   <trkpt lat="52.8352410" lon="-6.9308790">
    <ele>50.9</ele>
    <time>2024-07-02T15:33:37Z</time>
   </trkpt>
   <trkpt lat="52.8352630" lon="-6.9309400">
    <ele>50.9</ele>
    <time>2024-07-02T15:33:38Z</time>
   </trkpt>
   <trkpt lat="52.8352800" lon="-6.9309960">
    <ele>50.9</ele>
    <time>2024-07-02T15:33:39Z</time>
   </trkpt>
   <trkpt lat="52.8352930" lon="-6.9310370">
    <ele>50.8</ele>
    <time>2024-07-02T15:33:40Z</time>
   </trkpt>
   <trkpt lat="52.8353020" lon="-6.9310640">
    <ele>50.8</ele>
    <time>2024-07-02T15:33:41Z</time>
   </trkpt>
   <trkpt lat="52.8353090" lon="-6.9310830">
    <ele>50.8</ele>
    <time>2024-07-02T15:33:42Z</time>
   </trkpt>
   <trkpt lat="52.8353200" lon="-6.9310980">
    <ele>50.7</ele>
    <time>2024-07-02T15:33:43Z</time>
   </trkpt>
   <trkpt lat="52.8353210" lon="-6.9310990">
    <ele>50.7</ele>
    <time>2024-07-02T15:33:44Z</time>
   </trkpt>
   <trkpt lat="52.8353220" lon="-6.9310990">
    <ele>50.7</ele>
    <time>2024-07-02T15:33:45Z</time>
   </trkpt>
   <trkpt lat="52.8353240" lon="-6.9311000">
    <ele>50.7</ele>
    <time>2024-07-02T15:33:46Z</time>
   </trkpt>
   <trkpt lat="52.8353250" lon="-6.9311010">
    <ele>50.7</ele>
    <time>2024-07-02T15:33:47Z</time>
   </trkpt>
   <trkpt lat="52.8353260" lon="-6.9311020">
    <ele>50.7</ele>
    <time>2024-07-02T15:33:48Z</time>
   </trkpt>
   <trkpt lat="52.8353270" lon="-6.9311030">
    <ele>50.7</ele>
    <time>2024-07-02T15:33:49Z</time>
   </trkpt>
   <trkpt lat="52.8353290" lon="-6.9311040">
    <ele>50.7</ele>
    <time>2024-07-02T15:33:50Z</time>
   </trkpt>
   <trkpt lat="52.8353300" lon="-6.9311040">
    <ele>50.7</ele>
    <time>2024-07-02T15:33:51Z</time>
   </trkpt>
   <trkpt lat="52.8353310" lon="-6.9311050">
    <ele>50.7</ele>
    <time>2024-07-02T15:33:52Z</time>
   </trkpt>
   <trkpt lat="52.8353330" lon="-6.9311060">
    <ele>50.7</ele>
    <time>2024-07-02T15:33:53Z</time>
   </trkpt>
   <trkpt lat="52.8353340" lon="-6.9311070">
    <ele>50.7</ele>
    <time>2024-07-02T15:33:54Z</time>
   </trkpt>
   <trkpt lat="52.8353350" lon="-6.9311080">
    <ele>50.7</ele>
    <time>2024-07-02T15:33:55Z</time>
   </trkpt>
   <trkpt lat="52.8353360" lon="-6.9311080">
    <ele>50.7</ele>
    <time>2024-07-02T15:33:56Z</time>
   </trkpt>
   <trkpt lat="52.8353380" lon="-6.9311090">
    <ele>50.7</ele>
    <time>2024-07-02T15:33:57Z</time>
   </trkpt>
   <trkpt lat="52.8353390" lon="-6.9311100">
    <ele>50.7</ele>
    <time>2024-07-02T15:33:58Z</time>
   </trkpt>
   <trkpt lat="52.8353400" lon="-6.9311110">
    <ele>50.7</ele>
    <time>2024-07-02T15:33:59Z</time>
   </trkpt>
   <trkpt lat="52.8353420" lon="-6.9311120">
    <ele>50.7</ele>
    <time>2024-07-02T15:34:00Z</time>
   </trkpt>
   <trkpt lat="52.8353430" lon="-6.9311130">
    <ele>50.7</ele>
    <time>2024-07-02T15:34:01Z</time>
   </trkpt>
   <trkpt lat="52.8353440" lon="-6.9311130">
    <ele>50.7</ele>
    <time>2024-07-02T15:34:02Z</time>
   </trkpt>
   <trkpt lat="52.8353450" lon="-6.9311140">
    <ele>50.7</ele>
    <time>2024-07-02T15:34:03Z</time>
   </trkpt>
   <trkpt lat="52.8353470" lon="-6.9311150">
    <ele>50.7</ele>
    <time>2024-07-02T15:34:04Z</time>
   </trkpt>
   <trkpt lat="52.8353480" lon="-6.9311160">
    <ele>50.7</ele>
    <time>2024-07-02T15:34:05Z</time>
   </trkpt>
   <trkpt lat="52.8353490" lon="-6.9311170">
    <ele>50.7</ele>
    <time>2024-07-02T15:34:06Z</time>
   </trkpt>
   <trkpt lat="52.8353690" lon="-6.9311700">
    <ele>50.6</ele>
    <time>2024-07-02T15:34:07Z</time>
   </trkpt>
   <trkpt lat="52.8353760" lon="-6.9311880">
    <ele>50.5</ele>
    <time>2024-07-02T15:34:08Z</time>
   </trkpt>
   <trkpt lat="52.8353940" lon="-6.9312440">
    <ele>50.4</ele>
    <time>2024-07-02T15:34:09Z</time>
   </trkpt>
   <trkpt lat="52.8354010" lon="-6.9312640">
    <ele>50.4</ele>
    <time>2024-07-02T15:34:10Z</time>
   </trkpt>
   <trkpt lat="52.8354200" lon="-6.9313030">
    <ele>50.3</ele>
    <time>2024-07-02T15:34:11Z</time>
   </trkpt>
   <trkpt lat="52.8354260" lon="-6.9313150">
    <ele>50.3</ele>
    <time>2024-07-02T15:34:12Z</time>
   </trkpt>
   <trkpt lat="52.8354340" lon="-6.9313400">
    <ele>50.3</ele>
    <time>2024-07-02T15:34:13Z</time>
   </trkpt>
   <trkpt lat="52.8354430" lon="-6.9313630">
    <ele>50.2</ele>
    <time>2024-07-02T15:34:14Z</time>
   </trkpt>
   <trkpt lat="52.8354570" lon="-6.9313890">
    <ele>50.2</ele>
    <time>2024-07-02T15:34:15Z</time>
   </trkpt>
   <trkpt lat="52.8354640" lon="-6.9314000">
    <ele>50.2</ele>
    <time>2024-07-02T15:34:16Z</time>
   </trkpt>
   <trkpt lat="52.8354710" lon="-6.9314110">
    <ele>50.2</ele>
    <time>2024-07-02T15:34:17Z</time>
   </trkpt>
   <trkpt lat="52.8354880" lon="-6.9314530">
    <ele>50.1</ele>
    <time>2024-07-02T15:34:18Z</time>
   </trkpt>
   <trkpt lat="52.8354940" lon="-6.9314680">
    <ele>50.1</ele>
    <time>2024-07-02T15:34:19Z</time>
   </trkpt>
   <trkpt lat="52.8355190" lon="-6.9315290">
    <ele>50.0</ele>
    <time>2024-07-02T15:34:20Z</time>
   </trkpt>
   <trkpt lat="52.8355290" lon="-6.9315520">
    <ele>49.9</ele>
    <time>2024-07-02T15:34:21Z</time>
   </trkpt>
   <trkpt lat="52.8355510" lon="-6.9316210">
    <ele>49.8</ele>
    <time>2024-07-02T15:34:22Z</time>
   </trkpt>
   <trkpt lat="52.8355740" lon="-6.9316940">
    <ele>49.7</ele>
    <time>2024-07-02T15:34:23Z</time>
   </trkpt>
   <trkpt lat="52.8355970" lon="-6.9317680">
    <ele>49.6</ele>
    <time>2024-07-02T15:34:24Z</time>
   </trkpt>
   <trkpt lat="52.8356190" lon="-6.9318410">
    <ele>49.5</ele>
    <time>2024-07-02T15:34:25Z</time>
   </trkpt>
   <trkpt lat="52.8356390" lon="-6.9319140">
    <ele>49.4</ele>
    <time>2024-07-02T15:34:26Z</time>
   </trkpt>
   <trkpt lat="52.8356570" lon="-6.9319860">
    <ele>49.3</ele>
    <time>2024-07-02T15:34:27Z</time>
   </trkpt>
   <trkpt lat="52.8356750" lon="-6.9320680">
    <ele>49.3</ele>
    <time>2024-07-02T15:34:28Z</time>
   </trkpt>
   <trkpt lat="52.8356930" lon="-6.9321450">
    <ele>49.2</ele>
    <time>2024-07-02T15:34:29Z</time>
   </trkpt>
   <trkpt lat="52.8357170" lon="-6.9322180">
    <ele>49.1</ele>
    <time>2024-07-02T15:34:30Z</time>
   </trkpt>
   <trkpt lat="52.8357410" lon="-6.9322960">
    <ele>49.0</ele>
    <time>2024-07-02T15:34:31Z</time>
   </trkpt>
   <trkpt lat="52.8357750" lon="-6.9323720">
    <ele>48.9</ele>
    <time>2024-07-02T15:34:32Z</time>
   </trkpt>
   <trkpt lat="52.8358110" lon="-6.9324390">
    <ele>48.9</ele>
    <time>2024-07-02T15:34:33Z</time>
   </trkpt>
   <trkpt lat="52.8358420" lon="-6.9325250">
    <ele>48.8</ele>
    <time>2024-07-02T15:34:34Z</time>
   </trkpt>
   <trkpt lat="52.8358760" lon="-6.9326270">
    <ele>48.6</ele>
    <time>2024-07-02T15:34:35Z</time>
   </trkpt>
   <trkpt lat="52.8359110" lon="-6.9327200">
    <ele>48.5</ele>
    <time>2024-07-02T15:34:36Z</time>
   </trkpt>
   <trkpt lat="52.8359490" lon="-6.9328060">
    <ele>48.4</ele>
    <time>2024-07-02T15:34:37Z</time>
   </trkpt>
   <trkpt lat="52.8359840" lon="-6.9329020">
    <ele>48.3</ele>
    <time>2024-07-02T15:34:38Z</time>
   </trkpt>
   <trkpt lat="52.8360280" lon="-6.9329880">
    <ele>48.2</ele>
    <time>2024-07-02T15:34:39Z</time>
   </trkpt>
   <trkpt lat="52.8360750" lon="-6.9330630">
    <ele>48.1</ele>
    <time>2024-07-02T15:34:40Z</time>
   </trkpt>
   <trkpt lat="52.8361230" lon="-6.9331250">
    <ele>48.0</ele>
    <time>2024-07-02T15:34:41Z</time>
   </trkpt>
   <trkpt lat="52.8361660" lon="-6.9331780">
    <ele>48.0</ele>
    <time>2024-07-02T15:34:42Z</time>
   </trkpt>
   <trkpt lat="52.8362030" lon="-6.9332310">
    <ele>48.0</ele>
    <time>2024-07-02T15:34:43Z</time>
   </trkpt>
   <trkpt lat="52.8362400" lon="-6.9332920">
    <ele>48.0</ele>
    <time>2024-07-02T15:34:44Z</time>
   </trkpt>
   <trkpt lat="52.8362850" lon="-6.9333550">
    <ele>48.0</ele>
    <time>2024-07-02T15:34:45Z</time>
   </trkpt>
   <trkpt lat="52.8363320" lon="-6.9334180">
    <ele>48.0</ele>
    <time>2024-07-02T15:34:46Z</time>
   </trkpt>
   <trkpt lat="52.8363780" lon="-6.9334770">
    <ele>48.0</ele>
    <time>2024-07-02T15:34:47Z</time>
   </trkpt>
   <trkpt lat="52.8364160" lon="-6.9335300">
    <ele>48.0</ele>
    <time>2024-07-02T15:34:48Z</time>
   </trkpt>
   <trkpt lat="52.8364460" lon="-6.9335770">
    <ele>48.0</ele>
    <time>2024-07-02T15:34:49Z</time>
   </trkpt>
   <trkpt lat="52.8364660" lon="-6.9336310">
    <ele>47.9</ele>
    <time>2024-07-02T15:34:50Z</time>
   </trkpt>
   <trkpt lat="52.8364790" lon="-6.9336870">
    <ele>47.9</ele>
    <time>2024-07-02T15:34:51Z</time>
   </trkpt>
   <trkpt lat="52.8364860" lon="-6.9337350">
    <ele>47.9</ele>
    <time>2024-07-02T15:34:52Z</time>
   </trkpt>
   <trkpt lat="52.8364980" lon="-6.9337900">
    <ele>47.9</ele>
    <time>2024-07-02T15:34:53Z</time>
   </trkpt>
   <trkpt lat="52.8365020" lon="-6.9338070">
    <ele>47.9</ele>
    <time>2024-07-02T15:34:54Z</time>
   </trkpt>
   <trkpt lat="52.8365100" lon="-6.9338690">
    <ele>47.9</ele>
    <time>2024-07-02T15:34:55Z</time>
   </trkpt>
   <trkpt lat="52.8365130" lon="-6.9338910">
    <ele>47.9</ele>
    <time>2024-07-02T15:34:56Z</time>
   </trkpt>
   <trkpt lat="52.8365170" lon="-6.9339400">
    <ele>47.9</ele>
    <time>2024-07-02T15:34:57Z</time>
   </trkpt>
   <trkpt lat="52.8365200" lon="-6.9339950">
    <ele>47.9</ele>
    <time>2024-07-02T15:34:58Z</time>
   </trkpt>
   <trkpt lat="52.8365240" lon="-6.9340510">
    <ele>47.9</ele>
    <time>2024-07-02T15:34:59Z</time>
   </trkpt>
   <trkpt lat="52.8365300" lon="-6.9341100">
    <ele>47.8</ele>
    <time>2024-07-02T15:35:00Z</time>
   </trkpt>
   <trkpt lat="52.8365270" lon="-6.9341770">
    <ele>47.8</ele>
    <time>2024-07-02T15:35:01Z</time>
   </trkpt>
   <trkpt lat="52.8365250" lon="-6.9342500">
    <ele>47.8</ele>
    <time>2024-07-02T15:35:02Z</time>
   </trkpt>
   <trkpt lat="52.8365280" lon="-6.9343370">
    <ele>47.8</ele>
    <time>2024-07-02T15:35:03Z</time>
   </trkpt>
   <trkpt lat="52.8365340" lon="-6.9344270">
    <ele>47.8</ele>
    <time>2024-07-02T15:35:04Z</time>
   </trkpt>
   <trkpt lat="52.8365300" lon="-6.9345150">
    <ele>47.8</ele>
    <time>2024-07-02T15:35:05Z</time>
   </trkpt>
   <trkpt lat="52.8365230" lon="-6.9346100">
    <ele>47.9</ele>
    <time>2024-07-02T15:35:06Z</time>
   </trkpt>
   <trkpt lat="52.8365170" lon="-6.9347010">
    <ele>47.9</ele>
    <time>2024-07-02T15:35:07Z</time>
   </trkpt>
   <trkpt lat="52.8365120" lon="-6.9348000">
    <ele>48.0</ele>
    <time>2024-07-02T15:35:08Z</time>
   </trkpt>
   <trkpt lat="52.8365000" lon="-6.9348920">
    <ele>48.0</ele>
    <time>2024-07-02T15:35:09Z</time>
   </trkpt>
   <trkpt lat="52.8364930" lon="-6.9349900">
    <ele>48.1</ele>
    <time>2024-07-02T15:35:10Z</time>
   </trkpt>
   <trkpt lat="52.8364900" lon="-6.9350820">
    <ele>48.2</ele>
    <time>2024-07-02T15:35:11Z</time>
   </trkpt>
   <trkpt lat="52.8364950" lon="-6.9351810">
    <ele>48.2</ele>
    <time>2024-07-02T15:35:12Z</time>
   </trkpt>
   <trkpt lat="52.8365070" lon="-6.9352750">
    <ele>48.3</ele>
    <time>2024-07-02T15:35:13Z</time>
   </trkpt>
   <trkpt lat="52.8365180" lon="-6.9353640">
    <ele>48.4</ele>
    <time>2024-07-02T15:35:14Z</time>
   </trkpt>
   <trkpt lat="52.8365290" lon="-6.9354520">
    <ele>48.5</ele>
    <time>2024-07-02T15:35:15Z</time>
   </trkpt>
   <trkpt lat="52.8365430" lon="-6.9355290">
    <ele>48.6</ele>
    <time>2024-07-02T15:35:16Z</time>
   </trkpt>
   <trkpt lat="52.8365550" lon="-6.9356010">
    <ele>48.6</ele>
    <time>2024-07-02T15:35:17Z</time>
   </trkpt>
   <trkpt lat="52.8365740" lon="-6.9356530">
    <ele>48.7</ele>
    <time>2024-07-02T15:35:18Z</time>
   </trkpt>
   <trkpt lat="52.8365930" lon="-6.9356850">
    <ele>48.7</ele>
    <time>2024-07-02T15:35:19Z</time>
   </trkpt>
   <trkpt lat="52.8366080" lon="-6.9357010">
    <ele>48.7</ele>
    <time>2024-07-02T15:35:20Z</time>
   </trkpt>
   <trkpt lat="52.8366090" lon="-6.9357010">
    <ele>48.7</ele>
    <time>2024-07-02T15:35:21Z</time>
   </trkpt>
   <trkpt lat="52.8366090" lon="-6.9357010">
    <ele>48.7</ele>
    <time>2024-07-02T15:35:22Z</time>
   </trkpt>
   <trkpt lat="52.8366100" lon="-6.9357010">
    <ele>48.7</ele>
    <time>2024-07-02T15:35:23Z</time>
   </trkpt>
   <trkpt lat="52.8366110" lon="-6.9357010">
    <ele>48.7</ele>
    <time>2024-07-02T15:35:24Z</time>
   </trkpt>
   <trkpt lat="52.8366120" lon="-6.9357010">
    <ele>48.7</ele>
    <time>2024-07-02T15:35:25Z</time>
   </trkpt>
   <trkpt lat="52.8366120" lon="-6.9357020">
    <ele>48.7</ele>
    <time>2024-07-02T15:35:26Z</time>
   </trkpt>
   <trkpt lat="52.8366130" lon="-6.9357020">
    <ele>48.7</ele>
    <time>2024-07-02T15:35:27Z</time>
   </trkpt>
   <trkpt lat="52.8366140" lon="-6.9357020">
    <ele>48.7</ele>
    <time>2024-07-02T15:35:28Z</time>
   </trkpt>
   <trkpt lat="52.8366150" lon="-6.9357020">
    <ele>48.7</ele>
    <time>2024-07-02T15:35:29Z</time>
   </trkpt>
   <trkpt lat="52.8366150" lon="-6.9357020">
    <ele>48.7</ele>
    <time>2024-07-02T15:35:30Z</time>
   </trkpt>
   <trkpt lat="52.8366160" lon="-6.9357030">
    <ele>48.7</ele>
    <time>2024-07-02T15:35:31Z</time>
   </trkpt>
   <trkpt lat="52.8366170" lon="-6.9357030">
    <ele>48.7</ele>
    <time>2024-07-02T15:35:32Z</time>
   </trkpt>
   <trkpt lat="52.8366180" lon="-6.9357030">
    <ele>48.7</ele>
    <time>2024-07-02T15:35:33Z</time>
   </trkpt>
   <trkpt lat="52.8366180" lon="-6.9357030">
    <ele>48.7</ele>
    <time>2024-07-02T15:35:34Z</time>
   </trkpt>
   <trkpt lat="52.8366190" lon="-6.9357030">
    <ele>48.7</ele>
    <time>2024-07-02T15:35:35Z</time>
   </trkpt>
   <trkpt lat="52.8366200" lon="-6.9357040">
    <ele>48.7</ele>
    <time>2024-07-02T15:35:36Z</time>
   </trkpt>
   <trkpt lat="52.8366210" lon="-6.9357040">
    <ele>48.7</ele>
    <time>2024-07-02T15:35:37Z</time>
   </trkpt>
   <trkpt lat="52.8366210" lon="-6.9357040">
    <ele>48.7</ele>
    <time>2024-07-02T15:35:38Z</time>
   </trkpt>
   <trkpt lat="52.8366220" lon="-6.9357040">
    <ele>48.7</ele>
    <time>2024-07-02T15:35:39Z</time>
   </trkpt>
   <trkpt lat="52.8366230" lon="-6.9357040">
    <ele>48.8</ele>
    <time>2024-07-02T15:35:40Z</time>
   </trkpt>
   <trkpt lat="52.8366240" lon="-6.9357040">
    <ele>48.8</ele>
    <time>2024-07-02T15:35:41Z</time>
   </trkpt>
   <trkpt lat="52.8366240" lon="-6.9357050">
    <ele>48.8</ele>
    <time>2024-07-02T15:35:42Z</time>
   </trkpt>
   <trkpt lat="52.8366250" lon="-6.9357050">
    <ele>48.8</ele>
    <time>2024-07-02T15:35:43Z</time>
   </trkpt>
   <trkpt lat="52.8366260" lon="-6.9357050">
    <ele>48.8</ele>
    <time>2024-07-02T15:35:44Z</time>
   </trkpt>
   <trkpt lat="52.8366270" lon="-6.9357050">
    <ele>48.8</ele>
    <time>2024-07-02T15:35:45Z</time>
   </trkpt>
   <trkpt lat="52.8366270" lon="-6.9357050">
    <ele>48.8</ele>
    <time>2024-07-02T15:35:46Z</time>
   </trkpt>
   <trkpt lat="52.8366280" lon="-6.9357060">
    <ele>48.8</ele>
    <time>2024-07-02T15:35:47Z</time>
   </trkpt>
   <trkpt lat="52.8366290" lon="-6.9357060">
    <ele>48.8</ele>
    <time>2024-07-02T15:35:48Z</time>
   </trkpt>
   <trkpt lat="52.8366420" lon="-6.9357520">
    <ele>48.8</ele>
    <time>2024-07-02T15:35:49Z</time>
   </trkpt>
   <trkpt lat="52.8366600" lon="-6.9358130">
    <ele>48.8</ele>
    <time>2024-07-02T15:35:50Z</time>
   </trkpt>
   <trkpt lat="52.8366770" lon="-6.9358780">
    <ele>48.8</ele>
    <time>2024-07-02T15:35:51Z</time>
   </trkpt>
   <trkpt lat="52.8366960" lon="-6.9359490">
    <ele>48.8</ele>
    <time>2024-07-02T15:35:52Z</time>
   </trkpt>
   <trkpt lat="52.8367130" lon="-6.9360280">
    <ele>48.7</ele>
    <time>2024-07-02T15:35:53Z</time>
   </trkpt>
   <trkpt lat="52.8367310" lon="-6.9361110">
    <ele>48.7</ele>
    <time>2024-07-02T15:35:54Z</time>
   </trkpt>
   <trkpt lat="52.8367370" lon="-6.9362020">
    <ele>48.6</ele>
    <time>2024-07-02T15:35:55Z</time>
   </trkpt>
   <trkpt lat="52.8367380" lon="-6.9362880">
    <ele>48.6</ele>
    <time>2024-07-02T15:35:56Z</time>
   </trkpt>
   <trkpt lat="52.8367450" lon="-6.9363750">
    <ele>48.6</ele>
    <time>2024-07-02T15:35:57Z</time>
   </trkpt>
   <trkpt lat="52.8367580" lon="-6.9364710">
    <ele>48.6</ele>
    <time>2024-07-02T15:35:58Z</time>
   </trkpt>
   <trkpt lat="52.8367690" lon="-6.9365660">
    <ele>48.6</ele>
    <time>2024-07-02T15:35:59Z</time>
   </trkpt>
   <trkpt lat="52.8367870" lon="-6.9366710">
    <ele>48.6</ele>
    <time>2024-07-02T15:36:00Z</time>
   </trkpt>
   <trkpt lat="52.8367970" lon="-6.9367750">
    <ele>48.7</ele>
    <time>2024-07-02T15:36:01Z</time>
   </trkpt>
   <trkpt lat="52.8368000" lon="-6.9368750">
    <ele>48.7</ele>
    <time>2024-07-02T15:36:02Z</time>
   </trkpt>
   <trkpt lat="52.8368090" lon="-6.9369800">
    <ele>48.8</ele>
    <time>2024-07-02T15:36:03Z</time>
   </trkpt>
   <trkpt lat="52.8367630" lon="-6.9370130">
    <ele>48.9</ele>
    <time>2024-07-02T15:36:04Z</time>
   </trkpt>
   <trkpt lat="52.8368020" lon="-6.9370970">
    <ele>49.0</ele>
    <time>2024-07-02T15:36:05Z</time>
   </trkpt>
   <trkpt lat="52.8368370" lon="-6.9371880">
    <ele>49.1</ele>
    <time>2024-07-02T15:36:06Z</time>
   </trkpt>
   <trkpt lat="52.8368560" lon="-6.9372900">
    <ele>49.2</ele>
    <time>2024-07-02T15:36:07Z</time>
   </trkpt>
   <trkpt lat="52.8368430" lon="-6.9374020">
    <ele>49.5</ele>
    <time>2024-07-02T15:36:08Z</time>
   </trkpt>
   <trkpt lat="52.8368100" lon="-6.9375410">
    <ele>49.8</ele>
    <time>2024-07-02T15:36:09Z</time>
   </trkpt>
   <trkpt lat="52.8367670" lon="-6.9377470">
    <ele>50.0</ele>
    <time>2024-07-02T15:36:10Z</time>
   </trkpt>
   <trkpt lat="52.8367570" lon="-6.9378120">
    <ele>50.0</ele>
    <time>2024-07-02T15:36:11Z</time>
   </trkpt>
   <trkpt lat="52.8367370" lon="-6.9379300">
    <ele>49.9</ele>
    <time>2024-07-02T15:36:12Z</time>
   </trkpt>
   <trkpt lat="52.8367270" lon="-6.9380200">
    <ele>49.8</ele>
    <time>2024-07-02T15:36:13Z</time>
   </trkpt>
   <trkpt lat="52.8367240" lon="-6.9381010">
    <ele>49.7</ele>
    <time>2024-07-02T15:36:14Z</time>
   </trkpt>
   <trkpt lat="52.8367220" lon="-6.9381680">
    <ele>49.6</ele>
    <time>2024-07-02T15:36:15Z</time>
   </trkpt>
   <trkpt lat="52.8367220" lon="-6.9382220">
    <ele>49.5</ele>
    <time>2024-07-02T15:36:16Z</time>
   </trkpt>
   <trkpt lat="52.8367260" lon="-6.9382710">
    <ele>49.4</ele>
    <time>2024-07-02T15:36:17Z</time>
   </trkpt>
   <trkpt lat="52.8367230" lon="-6.9383340">
    <ele>49.3</ele>
    <time>2024-07-02T15:36:18Z</time>
   </trkpt>
   <trkpt lat="52.8367210" lon="-6.9383540">
    <ele>49.3</ele>
    <time>2024-07-02T15:36:19Z</time>
   </trkpt>
   <trkpt lat="52.8367270" lon="-6.9383810">
    <ele>49.3</ele>
    <time>2024-07-02T15:36:20Z</time>
   </trkpt>
   <trkpt lat="52.8367370" lon="-6.9384050">
    <ele>49.2</ele>
    <time>2024-07-02T15:36:21Z</time>
   </trkpt>
   <trkpt lat="52.8367640" lon="-6.9384290">
    <ele>49.2</ele>
    <time>2024-07-02T15:36:22Z</time>
   </trkpt>
   <trkpt lat="52.8367740" lon="-6.9384360">
    <ele>49.2</ele>
    <time>2024-07-02T15:36:23Z</time>
   </trkpt>
   <trkpt lat="52.8368130" lon="-6.9384440">
    <ele>48.9</ele>
    <time>2024-07-02T15:36:24Z</time>
   </trkpt>
   <trkpt lat="52.8368270" lon="-6.9384450">
    <ele>48.8</ele>
    <time>2024-07-02T15:36:25Z</time>
   </trkpt>
   <trkpt lat="52.8368670" lon="-6.9384530">
    <ele>48.6</ele>
    <time>2024-07-02T15:36:26Z</time>
   </trkpt>
   <trkpt lat="52.8369180" lon="-6.9384570">
    <ele>48.4</ele>
    <time>2024-07-02T15:36:27Z</time>
   </trkpt>
   <trkpt lat="52.8369770" lon="-6.9384580">
    <ele>48.1</ele>
    <time>2024-07-02T15:36:28Z</time>
   </trkpt>
   <trkpt lat="52.8370400" lon="-6.9384610">
    <ele>47.9</ele>
    <time>2024-07-02T15:36:29Z</time>
   </trkpt>
   <trkpt lat="52.8371030" lon="-6.9384730">
    <ele>47.7</ele>
    <time>2024-07-02T15:36:30Z</time>
   </trkpt>
   <trkpt lat="52.8371630" lon="-6.9384790">
    <ele>47.6</ele>
    <time>2024-07-02T15:36:31Z</time>
   </trkpt>
   <trkpt lat="52.8372270" lon="-6.9384810">
    <ele>47.5</ele>
    <time>2024-07-02T15:36:32Z</time>
   </trkpt>
   <trkpt lat="52.8372910" lon="-6.9384760">
    <ele>47.5</ele>
    <time>2024-07-02T15:36:33Z</time>
   </trkpt>
   <trkpt lat="52.8373520" lon="-6.9384620">
    <ele>47.4</ele>
    <time>2024-07-02T15:36:34Z</time>
   </trkpt>
   <trkpt lat="52.8374110" lon="-6.9384490">
    <ele>47.4</ele>
    <time>2024-07-02T15:36:35Z</time>
   </trkpt>
   <trkpt lat="52.8374630" lon="-6.9384340">
    <ele>47.3</ele>
    <time>2024-07-02T15:36:36Z</time>
   </trkpt>
   <trkpt lat="52.8375250" lon="-6.9384240">
    <ele>47.3</ele>
    <time>2024-07-02T15:36:37Z</time>
   </trkpt>
   <trkpt lat="52.8375870" lon="-6.9383960">
    <ele>47.2</ele>
    <time>2024-07-02T15:36:38Z</time>
   </trkpt>
   <trkpt lat="52.8376430" lon="-6.9383680">
    <ele>47.2</ele>
    <time>2024-07-02T15:36:39Z</time>
   </trkpt>
   <trkpt lat="52.8376930" lon="-6.9383360">
    <ele>47.2</ele>
    <time>2024-07-02T15:36:40Z</time>
   </trkpt>
   <trkpt lat="52.8377400" lon="-6.9383150">
    <ele>47.2</ele>
    <time>2024-07-02T15:36:41Z</time>
   </trkpt>
   <trkpt lat="52.8377770" lon="-6.9383080">
    <ele>47.2</ele>
    <time>2024-07-02T15:36:42Z</time>
   </trkpt>
   <trkpt lat="52.8378130" lon="-6.9382970">
    <ele>47.2</ele>
    <time>2024-07-02T15:36:43Z</time>
   </trkpt>
   <trkpt lat="52.8378460" lon="-6.9382820">
    <ele>47.2</ele>
    <time>2024-07-02T15:36:44Z</time>
   </trkpt>
   <trkpt lat="52.8378540" lon="-6.9382770">
    <ele>47.2</ele>
    <time>2024-07-02T15:36:45Z</time>
   </trkpt>
   <trkpt lat="52.8378670" lon="-6.9382730">
    <ele>47.2</ele>
    <time>2024-07-02T15:36:46Z</time>
   </trkpt>
   <trkpt lat="52.8378700" lon="-6.9382700">
    <ele>47.2</ele>
    <time>2024-07-02T15:36:47Z</time>
   </trkpt>
   <trkpt lat="52.8378720" lon="-6.9382670">
    <ele>47.2</ele>
    <time>2024-07-02T15:36:48Z</time>
   </trkpt>
   <trkpt lat="52.8378740" lon="-6.9382640">
    <ele>47.2</ele>
    <time>2024-07-02T15:36:49Z</time>
   </trkpt>
   <trkpt lat="52.8378770" lon="-6.9382620">
    <ele>47.2</ele>
    <time>2024-07-02T15:36:50Z</time>
   </trkpt>
   <trkpt lat="52.8378790" lon="-6.9382590">
    <ele>47.2</ele>
    <time>2024-07-02T15:36:51Z</time>
   </trkpt>
   <trkpt lat="52.8378820" lon="-6.9382560">
    <ele>47.2</ele>
    <time>2024-07-02T15:36:52Z</time>
   </trkpt>
   <trkpt lat="52.8378840" lon="-6.9382530">
    <ele>47.2</ele>
    <time>2024-07-02T15:36:53Z</time>
   </trkpt>
   <trkpt lat="52.8378860" lon="-6.9382500">
    <ele>47.2</ele>
    <time>2024-07-02T15:36:54Z</time>
   </trkpt>
   <trkpt lat="52.8378890" lon="-6.9382470">
    <ele>47.2</ele>
    <time>2024-07-02T15:36:55Z</time>
   </trkpt>
   <trkpt lat="52.8378910" lon="-6.9382450">
    <ele>47.2</ele>
    <time>2024-07-02T15:36:56Z</time>
   </trkpt>
   <trkpt lat="52.8378940" lon="-6.9382420">
    <ele>47.2</ele>
    <time>2024-07-02T15:36:57Z</time>
   </trkpt>
   <trkpt lat="52.8378960" lon="-6.9382390">
    <ele>47.2</ele>
    <time>2024-07-02T15:36:58Z</time>
   </trkpt>
   <trkpt lat="52.8378980" lon="-6.9382360">
    <ele>47.2</ele>
    <time>2024-07-02T15:36:59Z</time>
   </trkpt>
   <trkpt lat="52.8379010" lon="-6.9382330">
    <ele>47.2</ele>
    <time>2024-07-02T15:37:00Z</time>
   </trkpt>
   <trkpt lat="52.8379030" lon="-6.9382300">
    <ele>47.2</ele>
    <time>2024-07-02T15:37:01Z</time>
   </trkpt>
   <trkpt lat="52.8379050" lon="-6.9382280">
    <ele>47.2</ele>
    <time>2024-07-02T15:37:02Z</time>
   </trkpt>
   <trkpt lat="52.8379080" lon="-6.9382250">
    <ele>47.2</ele>
    <time>2024-07-02T15:37:03Z</time>
   </trkpt>
   <trkpt lat="52.8379100" lon="-6.9382220">
    <ele>47.2</ele>
    <time>2024-07-02T15:37:04Z</time>
   </trkpt>
   <trkpt lat="52.8379460" lon="-6.9381950">
    <ele>47.2</ele>
    <time>2024-07-02T15:37:05Z</time>
   </trkpt>
   <trkpt lat="52.8379950" lon="-6.9381690">
    <ele>47.2</ele>
    <time>2024-07-02T15:37:06Z</time>
   </trkpt>
   <trkpt lat="52.8380560" lon="-6.9381160">
    <ele>47.2</ele>
    <time>2024-07-02T15:37:07Z</time>
   </trkpt>
   <trkpt lat="52.8381230" lon="-6.9380500">
    <ele>47.2</ele>
    <time>2024-07-02T15:37:08Z</time>
   </trkpt>
   <trkpt lat="52.8381900" lon="-6.9379930">
    <ele>47.1</ele>
    <time>2024-07-02T15:37:09Z</time>
   </trkpt>
   <trkpt lat="52.8382560" lon="-6.9379460">
    <ele>47.1</ele>
    <time>2024-07-02T15:37:10Z</time>
   </trkpt>
   <trkpt lat="52.8383310" lon="-6.9379240">
    <ele>47.1</ele>
    <time>2024-07-02T15:37:11Z</time>
   </trkpt>
   <trkpt lat="52.8384010" lon="-6.9379090">
    <ele>47.1</ele>
    <time>2024-07-02T15:37:12Z</time>
   </trkpt>
   <trkpt lat="52.8384740" lon="-6.9378900">
    <ele>47.1</ele>
    <time>2024-07-02T15:37:13Z</time>
   </trkpt>
   <trkpt lat="52.8385450" lon="-6.9378640">
    <ele>47.2</ele>
    <time>2024-07-02T15:37:14Z</time>
   </trkpt>
   <trkpt lat="52.8386140" lon="-6.9378360">
    <ele>47.2</ele>
    <time>2024-07-02T15:37:15Z</time>
   </trkpt>
   <trkpt lat="52.8386900" lon="-6.9378070">
    <ele>47.2</ele>
    <time>2024-07-02T15:37:16Z</time>
   </trkpt>
   <trkpt lat="52.8387650" lon="-6.9377770">
    <ele>47.2</ele>
    <time>2024-07-02T15:37:17Z</time>
   </trkpt>
   <trkpt lat="52.8388420" lon="-6.9377590">
    <ele>47.2</ele>
    <time>2024-07-02T15:37:18Z</time>
   </trkpt>
   <trkpt lat="52.8389190" lon="-6.9377410">
    <ele>47.3</ele>
    <time>2024-07-02T15:37:19Z</time>
   </trkpt>
   <trkpt lat="52.8389950" lon="-6.9377170">
    <ele>47.4</ele>
    <time>2024-07-02T15:37:20Z</time>
   </trkpt>
   <trkpt lat="52.8390730" lon="-6.9377010">
    <ele>47.5</ele>
    <time>2024-07-02T15:37:21Z</time>
   </trkpt>
   <trkpt lat="52.8391480" lon="-6.9376920">
    <ele>47.5</ele>
    <time>2024-07-02T15:37:22Z</time>
   </trkpt>
   <trkpt lat="52.8392210" lon="-6.9376890">
    <ele>47.6</ele>
    <time>2024-07-02T15:37:23Z</time>
   </trkpt>
   <trkpt lat="52.8392920" lon="-6.9376920">
    <ele>47.6</ele>
    <time>2024-07-02T15:37:24Z</time>
   </trkpt>
   <trkpt lat="52.8393560" lon="-6.9377020">
    <ele>47.6</ele>
    <time>2024-07-02T15:37:25Z</time>
   </trkpt>
   <trkpt lat="52.8394200" lon="-6.9377200">
    <ele>47.7</ele>
    <time>2024-07-02T15:37:26Z</time>
   </trkpt>
   <trkpt lat="52.8394780" lon="-6.9377380">
    <ele>47.7</ele>
    <time>2024-07-02T15:37:27Z</time>
   </trkpt>
   <trkpt lat="52.8395270" lon="-6.9377450">
    <ele>47.8</ele>
    <time>2024-07-02T15:37:28Z</time>
   </trkpt>
   <trkpt lat="52.8395750" lon="-6.9377610">
    <ele>47.8</ele>
    <time>2024-07-02T15:37:29Z</time>
   </trkpt>
   <trkpt lat="52.8396250" lon="-6.9377710">
    <ele>47.9</ele>
    <time>2024-07-02T15:37:30Z</time>
   </trkpt>
   <trkpt lat="52.8396760" lon="-6.9377980">
    <ele>47.9</ele>
    <time>2024-07-02T15:37:31Z</time>
   </trkpt>
   <trkpt lat="52.8397250" lon="-6.9378150">
    <ele>48.0</ele>
    <time>2024-07-02T15:37:32Z</time>
   </trkpt>
   <trkpt lat="52.8397640" lon="-6.9378290">
    <ele>48.0</ele>
    <time>2024-07-02T15:37:33Z</time>
   </trkpt>
   <trkpt lat="52.8397930" lon="-6.9378390">
    <ele>48.0</ele>
    <time>2024-07-02T15:37:34Z</time>
   </trkpt>
   <trkpt lat="52.8398130" lon="-6.9378500">
    <ele>48.1</ele>
    <time>2024-07-02T15:37:35Z</time>
   </trkpt>
   <trkpt lat="52.8398240" lon="-6.9378560">
    <ele>48.1</ele>
    <time>2024-07-02T15:37:36Z</time>
   </trkpt>
   <trkpt lat="52.8398250" lon="-6.9378550">
    <ele>48.1</ele>
    <time>2024-07-02T15:37:37Z</time>
   </trkpt>
   <trkpt lat="52.8398280" lon="-6.9378560">
    <ele>48.1</ele>
    <time>2024-07-02T15:37:38Z</time>
   </trkpt>
   <trkpt lat="52.8398280" lon="-6.9378570">
    <ele>48.1</ele>
    <time>2024-07-02T15:37:39Z</time>
   </trkpt>
   <trkpt lat="52.8398280" lon="-6.9378570">
    <ele>48.1</ele>
    <time>2024-07-02T15:37:40Z</time>
   </trkpt>
   <trkpt lat="52.8398280" lon="-6.9378570">
    <ele>48.1</ele>
    <time>2024-07-02T15:37:41Z</time>
   </trkpt>
   <trkpt lat="52.8398280" lon="-6.9378570">
    <ele>48.1</ele>
    <time>2024-07-02T15:37:42Z</time>
   </trkpt>
   <trkpt lat="52.8398280" lon="-6.9378570">
    <ele>48.1</ele>
    <time>2024-07-02T15:37:43Z</time>
   </trkpt>
   <trkpt lat="52.8398280" lon="-6.9378570">
    <ele>48.1</ele>
    <time>2024-07-02T15:37:44Z</time>
   </trkpt>
   <trkpt lat="52.8398280" lon="-6.9378570">
    <ele>48.1</ele>
    <time>2024-07-02T15:37:45Z</time>
   </trkpt>
   <trkpt lat="52.8398280" lon="-6.9378570">
    <ele>48.1</ele>
    <time>2024-07-02T15:37:46Z</time>
   </trkpt>
   <trkpt lat="52.8398280" lon="-6.9378570">
    <ele>48.1</ele>
    <time>2024-07-02T15:37:47Z</time>
   </trkpt>
   <trkpt lat="52.8398280" lon="-6.9378570">
    <ele>48.1</ele>
    <time>2024-07-02T15:37:48Z</time>
   </trkpt>
   <trkpt lat="52.8398280" lon="-6.9378570">
    <ele>48.1</ele>
    <time>2024-07-02T15:37:49Z</time>
   </trkpt>
   <trkpt lat="52.8398280" lon="-6.9378570">
    <ele>48.1</ele>
    <time>2024-07-02T15:37:50Z</time>
   </trkpt>
   <trkpt lat="52.8398280" lon="-6.9378570">
    <ele>48.1</ele>
    <time>2024-07-02T15:37:51Z</time>
   </trkpt>
   <trkpt lat="52.8398280" lon="-6.9378570">
    <ele>48.1</ele>
    <time>2024-07-02T15:37:52Z</time>
   </trkpt>
   <trkpt lat="52.8398280" lon="-6.9378570">
    <ele>48.1</ele>
    <time>2024-07-02T15:37:53Z</time>
   </trkpt>
   <trkpt lat="52.8398280" lon="-6.9378570">
    <ele>48.1</ele>
    <time>2024-07-02T15:37:54Z</time>
   </trkpt>
   <trkpt lat="52.8398280" lon="-6.9378570">
    <ele>48.1</ele>
    <time>2024-07-02T15:37:55Z</time>
   </trkpt>
   <trkpt lat="52.8398280" lon="-6.9378570">
    <ele>48.1</ele>
    <time>2024-07-02T15:37:56Z</time>
   </trkpt>
   <trkpt lat="52.8398280" lon="-6.9378570">
    <ele>48.1</ele>
    <time>2024-07-02T15:37:57Z</time>
   </trkpt>
   <trkpt lat="52.8398310" lon="-6.9379060">
    <ele>48.1</ele>
    <time>2024-07-02T15:37:58Z</time>
   </trkpt>
   <trkpt lat="52.8398600" lon="-6.9379340">
    <ele>48.2</ele>
    <time>2024-07-02T15:37:59Z</time>
   </trkpt>
   <trkpt lat="52.8399020" lon="-6.9379590">
    <ele>48.2</ele>
    <time>2024-07-02T15:38:00Z</time>
   </trkpt>
   <trkpt lat="52.8399490" lon="-6.9379870">
    <ele>48.2</ele>
    <time>2024-07-02T15:38:01Z</time>
   </trkpt>
   <trkpt lat="52.8400050" lon="-6.9380190">
    <ele>48.3</ele>
    <time>2024-07-02T15:38:02Z</time>
   </trkpt>
   <trkpt lat="52.8400730" lon="-6.9380530">
    <ele>48.4</ele>
    <time>2024-07-02T15:38:03Z</time>
   </trkpt>
   <trkpt lat="52.8401420" lon="-6.9380930">
    <ele>48.4</ele>
    <time>2024-07-02T15:38:04Z</time>
   </trkpt>
   <trkpt lat="52.8402150" lon="-6.9381390">
    <ele>48.5</ele>
    <time>2024-07-02T15:38:05Z</time>
   </trkpt>
   <trkpt lat="52.8402910" lon="-6.9381820">
    <ele>48.5</ele>
    <time>2024-07-02T15:38:06Z</time>
   </trkpt>
   <trkpt lat="52.8403680" lon="-6.9382290">
    <ele>48.6</ele>
    <time>2024-07-02T15:38:07Z</time>
   </trkpt>
   <trkpt lat="52.8404460" lon="-6.9382730">
    <ele>48.7</ele>
    <time>2024-07-02T15:38:08Z</time>
   </trkpt>
   <trkpt lat="52.8405170" lon="-6.9383210">
    <ele>48.7</ele>
    <time>2024-07-02T15:38:09Z</time>
   </trkpt>
   <trkpt lat="52.8405760" lon="-6.9383640">
    <ele>48.8</ele>
    <time>2024-07-02T15:38:10Z</time>
   </trkpt>
   <trkpt lat="52.8406280" lon="-6.9384130">
    <ele>48.8</ele>
    <time>2024-07-02T15:38:11Z</time>
   </trkpt>
   <trkpt lat="52.8406680" lon="-6.9384580">
    <ele>48.8</ele>
    <time>2024-07-02T15:38:12Z</time>
   </trkpt>
   <trkpt lat="52.8407120" lon="-6.9385020">
    <ele>48.8</ele>
    <time>2024-07-02T15:38:13Z</time>
   </trkpt>
   <trkpt lat="52.8407500" lon="-6.9385520">
    <ele>48.9</ele>
    <time>2024-07-02T15:38:14Z</time>
   </trkpt>
   <trkpt lat="52.8407930" lon="-6.9385990">
    <ele>48.9</ele>
    <time>2024-07-02T15:38:15Z</time>
   </trkpt>
   <trkpt lat="52.8408420" lon="-6.9386440">
    <ele>48.9</ele>
    <time>2024-07-02T15:38:16Z</time>
   </trkpt>
   <trkpt lat="52.8408970" lon="-6.9386930">
    <ele>49.0</ele>
    <time>2024-07-02T15:38:17Z</time>
   </trkpt>
   <trkpt lat="52.8409660" lon="-6.9387310">
    <ele>49.0</ele>
    <time>2024-07-02T15:38:18Z</time>
   </trkpt>
   <trkpt lat="52.8410460" lon="-6.9387600">
    <ele>49.1</ele>
    <time>2024-07-02T15:38:19Z</time>
   </trkpt>
   <trkpt lat="52.8411290" lon="-6.9387970">
    <ele>49.2</ele>
    <time>2024-07-02T15:38:20Z</time>
   </trkpt>
   <trkpt lat="52.8412140" lon="-6.9388480">
    <ele>49.3</ele>
    <time>2024-07-02T15:38:21Z</time>
   </trkpt>
   <trkpt lat="52.8412980" lon="-6.9389140">
    <ele>49.4</ele>
    <time>2024-07-02T15:38:22Z</time>
   </trkpt>
   <trkpt lat="52.8413780" lon="-6.9389810">
    <ele>49.5</ele>
    <time>2024-07-02T15:38:23Z</time>
   </trkpt>
   <trkpt lat="52.8414600" lon="-6.9390500">
    <ele>49.6</ele>
    <time>2024-07-02T15:38:24Z</time>
   </trkpt>
   <trkpt lat="52.8415380" lon="-6.9391120">
    <ele>49.5</ele>
    <time>2024-07-02T15:38:25Z</time>
   </trkpt>
   <trkpt lat="52.8416210" lon="-6.9391810">
    <ele>49.5</ele>
    <time>2024-07-02T15:38:26Z</time>
   </trkpt>
   <trkpt lat="52.8416940" lon="-6.9392630">
    <ele>49.4</ele>
    <time>2024-07-02T15:38:27Z</time>
   </trkpt>
   <trkpt lat="52.8417730" lon="-6.9393340">
    <ele>49.4</ele>
    <time>2024-07-02T15:38:28Z</time>
   </trkpt>
   <trkpt lat="52.8418540" lon="-6.9394000">
    <ele>49.3</ele>
    <time>2024-07-02T15:38:29Z</time>
   </trkpt>
   <trkpt lat="52.8419290" lon="-6.9394610">
    <ele>49.3</ele>
    <time>2024-07-02T15:38:30Z</time>
   </trkpt>
   <trkpt lat="52.8420100" lon="-6.9395040">
    <ele>49.2</ele>
    <time>2024-07-02T15:38:31Z</time>
   </trkpt>
   <trkpt lat="52.8420890" lon="-6.9395390">
    <ele>49.2</ele>
    <time>2024-07-02T15:38:32Z</time>
   </trkpt>
   <trkpt lat="52.8421580" lon="-6.9395610">
    <ele>49.2</ele>
    <time>2024-07-02T15:38:33Z</time>
   </trkpt>
   <trkpt lat="52.8422280" lon="-6.9395750">
    <ele>49.3</ele>
    <time>2024-07-02T15:38:34Z</time>
   </trkpt>
   <trkpt lat="52.8422940" lon="-6.9395810">
    <ele>49.3</ele>
    <time>2024-07-02T15:38:35Z</time>
   </trkpt>
   <trkpt lat="52.8423540" lon="-6.9395760">
    <ele>49.3</ele>
    <time>2024-07-02T15:38:36Z</time>
   </trkpt>
   <trkpt lat="52.8424090" lon="-6.9395790">
    <ele>49.4</ele>
    <time>2024-07-02T15:38:37Z</time>
   </trkpt>
   <trkpt lat="52.8424730" lon="-6.9395780">
    <ele>49.4</ele>
    <time>2024-07-02T15:38:38Z</time>
   </trkpt>
   <trkpt lat="52.8425410" lon="-6.9395880">
    <ele>49.5</ele>
    <time>2024-07-02T15:38:39Z</time>
   </trkpt>
   <trkpt lat="52.8426170" lon="-6.9396050">
    <ele>49.7</ele>
    <time>2024-07-02T15:38:40Z</time>
   </trkpt>
   <trkpt lat="52.8427010" lon="-6.9396240">
    <ele>49.9</ele>
    <time>2024-07-02T15:38:41Z</time>
   </trkpt>
   <trkpt lat="52.8427910" lon="-6.9396370">
    <ele>50.1</ele>
    <time>2024-07-02T15:38:42Z</time>
   </trkpt>
   <trkpt lat="52.8428820" lon="-6.9396500">
    <ele>50.3</ele>
    <time>2024-07-02T15:38:43Z</time>
   </trkpt>
   <trkpt lat="52.8429810" lon="-6.9396590">
    <ele>50.4</ele>
    <time>2024-07-02T15:38:44Z</time>
   </trkpt>
   <trkpt lat="52.8430890" lon="-6.9396630">
    <ele>50.5</ele>
    <time>2024-07-02T15:38:45Z</time>
   </trkpt>
   <trkpt lat="52.8431960" lon="-6.9396750">
    <ele>50.6</ele>
    <time>2024-07-02T15:38:46Z</time>
   </trkpt>
   <trkpt lat="52.8433090" lon="-6.9396900">
    <ele>50.6</ele>
    <time>2024-07-02T15:38:47Z</time>
   </trkpt>
   <trkpt lat="52.8434150" lon="-6.9397060">
    <ele>50.7</ele>
    <time>2024-07-02T15:38:48Z</time>
   </trkpt>
   <trkpt lat="52.8435200" lon="-6.9397080">
    <ele>50.7</ele>
    <time>2024-07-02T15:38:49Z</time>
   </trkpt>
   <trkpt lat="52.8436170" lon="-6.9397130">
    <ele>50.8</ele>
    <time>2024-07-02T15:38:50Z</time>
   </trkpt>
   <trkpt lat="52.8437060" lon="-6.9397220">
    <ele>50.8</ele>
    <time>2024-07-02T15:38:51Z</time>
   </trkpt>
   <trkpt lat="52.8437770" lon="-6.9397330">
    <ele>50.8</ele>
    <time>2024-07-02T15:38:52Z</time>
   </trkpt>
   <trkpt lat="52.8438400" lon="-6.9397350">
    <ele>50.8</ele>
    <time>2024-07-02T15:38:53Z</time>
   </trkpt>
   <trkpt lat="52.8438980" lon="-6.9397320">
    <ele>50.8</ele>
    <time>2024-07-02T15:38:54Z</time>
   </trkpt>
   <trkpt lat="52.8439510" lon="-6.9397340">
    <ele>50.8</ele>
    <time>2024-07-02T15:38:55Z</time>
   </trkpt>
   <trkpt lat="52.8439940" lon="-6.9397360">
    <ele>50.8</ele>
    <time>2024-07-02T15:38:56Z</time>
   </trkpt>
   <trkpt lat="52.8440280" lon="-6.9397260">
    <ele>50.8</ele>
    <time>2024-07-02T15:38:57Z</time>
   </trkpt>
   <trkpt lat="52.8440650" lon="-6.9397230">
    <ele>50.8</ele>
    <time>2024-07-02T15:38:58Z</time>
   </trkpt>
   <trkpt lat="52.8440760" lon="-6.9397240">
    <ele>50.8</ele>
    <time>2024-07-02T15:38:59Z</time>
   </trkpt>
   <trkpt lat="52.8440910" lon="-6.9397230">
    <ele>50.8</ele>
    <time>2024-07-02T15:39:00Z</time>
   </trkpt>
   <trkpt lat="52.8440930" lon="-6.9397230">
    <ele>50.8</ele>
    <time>2024-07-02T15:39:01Z</time>
   </trkpt>
   <trkpt lat="52.8440960" lon="-6.9397230">
    <ele>50.8</ele>
    <time>2024-07-02T15:39:02Z</time>
   </trkpt>
   <trkpt lat="52.8440980" lon="-6.9397220">
    <ele>50.8</ele>
    <time>2024-07-02T15:39:03Z</time>
   </trkpt>
   <trkpt lat="52.8441000" lon="-6.9397220">
    <ele>50.8</ele>
    <time>2024-07-02T15:39:04Z</time>
   </trkpt>
   <trkpt lat="52.8441030" lon="-6.9397220">
    <ele>50.8</ele>
    <time>2024-07-02T15:39:05Z</time>
   </trkpt>
   <trkpt lat="52.8441050" lon="-6.9397220">
    <ele>50.8</ele>
    <time>2024-07-02T15:39:06Z</time>
   </trkpt>
   <trkpt lat="52.8441070" lon="-6.9397220">
    <ele>50.8</ele>
    <time>2024-07-02T15:39:07Z</time>
   </trkpt>
   <trkpt lat="52.8441100" lon="-6.9397210">
    <ele>50.8</ele>
    <time>2024-07-02T15:39:08Z</time>
   </trkpt>
   <trkpt lat="52.8441120" lon="-6.9397210">
    <ele>50.8</ele>
    <time>2024-07-02T15:39:09Z</time>
   </trkpt>
   <trkpt lat="52.8441150" lon="-6.9397210">
    <ele>50.8</ele>
    <time>2024-07-02T15:39:10Z</time>
   </trkpt>
   <trkpt lat="52.8441170" lon="-6.9397210">
    <ele>50.8</ele>
    <time>2024-07-02T15:39:11Z</time>
   </trkpt>
   <trkpt lat="52.8441190" lon="-6.9397200">
    <ele>50.8</ele>
    <time>2024-07-02T15:39:12Z</time>
   </trkpt>
   <trkpt lat="52.8441220" lon="-6.9397200">
    <ele>50.8</ele>
    <time>2024-07-02T15:39:13Z</time>
   </trkpt>
   <trkpt lat="52.8441240" lon="-6.9397200">
    <ele>50.8</ele>
    <time>2024-07-02T15:39:14Z</time>
   </trkpt>
   <trkpt lat="52.8441530" lon="-6.9397230">
    <ele>50.8</ele>
    <time>2024-07-02T15:39:15Z</time>
   </trkpt>
   <trkpt lat="52.8441610" lon="-6.9397260">
    <ele>50.9</ele>
    <time>2024-07-02T15:39:16Z</time>
   </trkpt>
   <trkpt lat="52.8441990" lon="-6.9397300">
    <ele>50.9</ele>
    <time>2024-07-02T15:39:17Z</time>
   </trkpt>
   <trkpt lat="52.8442150" lon="-6.9397310">
    <ele>50.9</ele>
    <time>2024-07-02T15:39:18Z</time>
   </trkpt>
   <trkpt lat="52.8442610" lon="-6.9397310">
    <ele>50.9</ele>
    <time>2024-07-02T15:39:19Z</time>
   </trkpt>
   <trkpt lat="52.8443200" lon="-6.9397260">
    <ele>50.9</ele>
    <time>2024-07-02T15:39:20Z</time>
   </trkpt>
   <trkpt lat="52.8443880" lon="-6.9397110">
    <ele>50.9</ele>
    <time>2024-07-02T15:39:21Z</time>
   </trkpt>
   <trkpt lat="52.8444650" lon="-6.9396960">
    <ele>50.8</ele>
    <time>2024-07-02T15:39:22Z</time>
   </trkpt>
   <trkpt lat="52.8445860" lon="-6.9396870">
    <ele>50.8</ele>
    <time>2024-07-02T15:39:23Z</time>
   </trkpt>
   <trkpt lat="52.8446260" lon="-6.9396840">
    <ele>50.8</ele>
    <time>2024-07-02T15:39:24Z</time>
   </trkpt>
   <trkpt lat="52.8447200" lon="-6.9396770">
    <ele>50.8</ele>
    <time>2024-07-02T15:39:25Z</time>
   </trkpt>
   <trkpt lat="52.8448200" lon="-6.9396710">
    <ele>50.7</ele>
    <time>2024-07-02T15:39:26Z</time>
   </trkpt>
   <trkpt lat="52.8449230" lon="-6.9396790">
    <ele>50.6</ele>
    <time>2024-07-02T15:39:27Z</time>
   </trkpt>
   <trkpt lat="52.8450160" lon="-6.9396760">
    <ele>50.6</ele>
    <time>2024-07-02T15:39:28Z</time>
   </trkpt>
   <trkpt lat="52.8451110" lon="-6.9396590">
    <ele>50.5</ele>
    <time>2024-07-02T15:39:29Z</time>
   </trkpt>
   <trkpt lat="52.8451970" lon="-6.9396400">
    <ele>50.4</ele>
    <time>2024-07-02T15:39:30Z</time>
   </trkpt>
   <trkpt lat="52.8452760" lon="-6.9396200">
    <ele>50.4</ele>
    <time>2024-07-02T15:39:31Z</time>
   </trkpt>
   <trkpt lat="52.8453350" lon="-6.9396340">
    <ele>50.3</ele>
    <time>2024-07-02T15:39:32Z</time>
   </trkpt>
   <trkpt lat="52.8453770" lon="-6.9396540">
    <ele>50.3</ele>
    <time>2024-07-02T15:39:33Z</time>
   </trkpt>
   <trkpt lat="52.8454110" lon="-6.9396730">
    <ele>50.3</ele>
    <time>2024-07-02T15:39:34Z</time>
   </trkpt>
   <trkpt lat="52.8454380" lon="-6.9397150">
    <ele>50.3</ele>
    <time>2024-07-02T15:39:35Z</time>
   </trkpt>
   <trkpt lat="52.8454470" lon="-6.9397320">
    <ele>50.3</ele>
    <time>2024-07-02T15:39:36Z</time>
   </trkpt>
   <trkpt lat="52.8454560" lon="-6.9397890">
    <ele>50.4</ele>
    <time>2024-07-02T15:39:37Z</time>
   </trkpt>
   <trkpt lat="52.8454580" lon="-6.9398090">
    <ele>50.4</ele>
    <time>2024-07-02T15:39:38Z</time>
   </trkpt>
   <trkpt lat="52.8454630" lon="-6.9398710">
    <ele>50.5</ele>
    <time>2024-07-02T15:39:39Z</time>
   </trkpt>
   <trkpt lat="52.8454640" lon="-6.9398950">
    <ele>50.5</ele>
    <time>2024-07-02T15:39:40Z</time>
   </trkpt>
   <trkpt lat="52.8454600" lon="-6.9399400">
    <ele>50.5</ele>
    <time>2024-07-02T15:39:41Z</time>
   </trkpt>
   <trkpt lat="52.8454590" lon="-6.9400030">
    <ele>50.6</ele>
    <time>2024-07-02T15:39:42Z</time>
   </trkpt>
   <trkpt lat="52.8454650" lon="-6.9400790">
    <ele>50.7</ele>
    <time>2024-07-02T15:39:43Z</time>
   </trkpt>
   <trkpt lat="52.8454660" lon="-6.9401540">
    <ele>50.8</ele>
    <time>2024-07-02T15:39:44Z</time>
   </trkpt>
   <trkpt lat="52.8454680" lon="-6.9402300">
    <ele>50.8</ele>
    <time>2024-07-02T15:39:45Z</time>
   </trkpt>
   <trkpt lat="52.8454660" lon="-6.9403110">
    <ele>50.9</ele>
    <time>2024-07-02T15:39:46Z</time>
   </trkpt>
   <trkpt lat="52.8454680" lon="-6.9403960">
    <ele>51.0</ele>
    <time>2024-07-02T15:39:47Z</time>
   </trkpt>
   <trkpt lat="52.8454720" lon="-6.9404840">
    <ele>51.1</ele>
    <time>2024-07-02T15:39:48Z</time>
   </trkpt>
   <trkpt lat="52.8454740" lon="-6.9405660">
    <ele>51.2</ele>
    <time>2024-07-02T15:39:49Z</time>
   </trkpt>
   <trkpt lat="52.8454720" lon="-6.9406390">
    <ele>51.3</ele>
    <time>2024-07-02T15:39:50Z</time>
   </trkpt>
   <trkpt lat="52.8454680" lon="-6.9407020">
    <ele>51.4</ele>
    <time>2024-07-02T15:39:51Z</time>
   </trkpt>
   <trkpt lat="52.8454620" lon="-6.9407540">
    <ele>51.4</ele>
    <time>2024-07-02T15:39:52Z</time>
   </trkpt>
   <trkpt lat="52.8454580" lon="-6.9408060">
    <ele>51.5</ele>
    <time>2024-07-02T15:39:53Z</time>
   </trkpt>
   <trkpt lat="52.8454590" lon="-6.9408200">
    <ele>51.5</ele>
    <time>2024-07-02T15:39:54Z</time>
   </trkpt>
   <trkpt lat="52.8454550" lon="-6.9408430">
    <ele>51.5</ele>
    <time>2024-07-02T15:39:55Z</time>
   </trkpt>
   <trkpt lat="52.8454450" lon="-6.9408650">
    <ele>51.6</ele>
    <time>2024-07-02T15:39:56Z</time>
   </trkpt>
   <trkpt lat="52.8454430" lon="-6.9408850">
    <ele>51.6</ele>
    <time>2024-07-02T15:39:57Z</time>
   </trkpt>
   <trkpt lat="52.8454350" lon="-6.9409020">
    <ele>51.6</ele>
    <time>2024-07-02T15:39:58Z</time>
   </trkpt>
   <trkpt lat="52.8454300" lon="-6.9409160">
    <ele>51.7</ele>
    <time>2024-07-02T15:39:59Z</time>
   </trkpt>
   <trkpt lat="52.8454290" lon="-6.9409220">
    <ele>51.7</ele>
    <time>2024-07-02T15:40:00Z</time>
   </trkpt>
   <trkpt lat="52.8454310" lon="-6.9409230">
    <ele>51.7</ele>
    <time>2024-07-02T15:40:01Z</time>
   </trkpt>
   <trkpt lat="52.8454320" lon="-6.9409230">
    <ele>51.7</ele>
    <time>2024-07-02T15:40:02Z</time>
   </trkpt>
   <trkpt lat="52.8454320" lon="-6.9409230">
    <ele>51.7</ele>
    <time>2024-07-02T15:40:03Z</time>
   </trkpt>
   <trkpt lat="52.8454320" lon="-6.9409230">
    <ele>51.7</ele>
    <time>2024-07-02T15:40:04Z</time>
   </trkpt>
   <trkpt lat="52.8454320" lon="-6.9409230">
    <ele>51.7</ele>
    <time>2024-07-02T15:40:05Z</time>
   </trkpt>
   <trkpt lat="52.8454320" lon="-6.9409230">
    <ele>51.7</ele>
    <time>2024-07-02T15:40:06Z</time>
   </trkpt>
   <trkpt lat="52.8454320" lon="-6.9409230">
    <ele>51.7</ele>
    <time>2024-07-02T15:40:07Z</time>
   </trkpt>
   <trkpt lat="52.8454320" lon="-6.9409230">
    <ele>51.7</ele>
    <time>2024-07-02T15:40:08Z</time>
   </trkpt>
   <trkpt lat="52.8454320" lon="-6.9409230">
    <ele>51.7</ele>
    <time>2024-07-02T15:40:09Z</time>
   </trkpt>
   <trkpt lat="52.8454320" lon="-6.9409230">
    <ele>51.7</ele>
    <time>2024-07-02T15:40:10Z</time>
   </trkpt>
   <trkpt lat="52.8454320" lon="-6.9409230">
    <ele>51.7</ele>
    <time>2024-07-02T15:40:11Z</time>
   </trkpt>
   <trkpt lat="52.8454320" lon="-6.9409230">
    <ele>51.7</ele>
    <time>2024-07-02T15:40:12Z</time>
   </trkpt>
   <trkpt lat="52.8454320" lon="-6.9409230">
    <ele>51.7</ele>
    <time>2024-07-02T15:40:13Z</time>
   </trkpt>
   <trkpt lat="52.8454320" lon="-6.9409230">
    <ele>51.7</ele>
    <time>2024-07-02T15:40:14Z</time>
   </trkpt>
   <trkpt lat="52.8454320" lon="-6.9409230">
    <ele>51.7</ele>
    <time>2024-07-02T15:40:15Z</time>
   </trkpt>
   <trkpt lat="52.8454320" lon="-6.9409230">
    <ele>51.7</ele>
    <time>2024-07-02T15:40:16Z</time>
   </trkpt>
   <trkpt lat="52.8454320" lon="-6.9409230">
    <ele>51.7</ele>
    <time>2024-07-02T15:40:17Z</time>
   </trkpt>
   <trkpt lat="52.8454320" lon="-6.9409230">
    <ele>51.7</ele>
    <time>2024-07-02T15:40:18Z</time>
   </trkpt>
   <trkpt lat="52.8454320" lon="-6.9409230">
    <ele>51.7</ele>
    <time>2024-07-02T15:40:19Z</time>
   </trkpt>
   <trkpt lat="52.8454320" lon="-6.9409230">
    <ele>51.7</ele>
    <time>2024-07-02T15:40:20Z</time>
   </trkpt>
   <trkpt lat="52.8454320" lon="-6.9409230">
    <ele>51.7</ele>
    <time>2024-07-02T15:40:21Z</time>
   </trkpt>
   <trkpt lat="52.8454320" lon="-6.9409230">
    <ele>51.7</ele>
    <time>2024-07-02T15:40:22Z</time>
   </trkpt>
   <trkpt lat="52.8454320" lon="-6.9409230">
    <ele>51.7</ele>
    <time>2024-07-02T15:40:23Z</time>
   </trkpt>
   <trkpt lat="52.8454320" lon="-6.9409230">
    <ele>51.7</ele>
    <time>2024-07-02T15:40:24Z</time>
   </trkpt>
   <trkpt lat="52.8454320" lon="-6.9409230">
    <ele>51.7</ele>
    <time>2024-07-02T15:40:25Z</time>
   </trkpt>
   <trkpt lat="52.8454320" lon="-6.9409230">
    <ele>51.7</ele>
    <time>2024-07-02T15:40:26Z</time>
   </trkpt>
   <trkpt lat="52.8454320" lon="-6.9409230">
    <ele>51.7</ele>
    <time>2024-07-02T15:40:27Z</time>
   </trkpt>
   <trkpt lat="52.8454320" lon="-6.9409230">
    <ele>51.7</ele>
    <time>2024-07-02T15:40:28Z</time>
   </trkpt>
   <trkpt lat="52.8454320" lon="-6.9409230">
    <ele>51.7</ele>
    <time>2024-07-02T15:40:29Z</time>
   </trkpt>
   <trkpt lat="52.8454320" lon="-6.9409230">
    <ele>51.7</ele>
    <time>2024-07-02T15:40:30Z</time>
   </trkpt>
   <trkpt lat="52.8454320" lon="-6.9409230">
    <ele>51.7</ele>
    <time>2024-07-02T15:40:31Z</time>
   </trkpt>
   <trkpt lat="52.8454320" lon="-6.9409230">
    <ele>51.7</ele>
    <time>2024-07-02T15:40:32Z</time>
   </trkpt>
   <trkpt lat="52.8454320" lon="-6.9409230">
    <ele>51.7</ele>
    <time>2024-07-02T15:40:33Z</time>
   </trkpt>
   <trkpt lat="52.8454320" lon="-6.9409230">
    <ele>51.7</ele>
    <time>2024-07-02T15:40:34Z</time>
   </trkpt>
   <trkpt lat="52.8454320" lon="-6.9409230">
    <ele>51.7</ele>
    <time>2024-07-02T15:40:35Z</time>
   </trkpt>
   <trkpt lat="52.8454320" lon="-6.9409230">
    <ele>51.7</ele>
    <time>2024-07-02T15:40:36Z</time>
   </trkpt>
   <trkpt lat="52.8454320" lon="-6.9409230">
    <ele>51.7</ele>
    <time>2024-07-02T15:40:37Z</time>
   </trkpt>
   <trkpt lat="52.8454320" lon="-6.9409230">
    <ele>51.7</ele>
    <time>2024-07-02T15:40:38Z</time>
   </trkpt>
   <trkpt lat="52.8454320" lon="-6.9409230">
    <ele>51.7</ele>
    <time>2024-07-02T15:40:39Z</time>
   </trkpt>
   <trkpt lat="52.8454320" lon="-6.9409230">
    <ele>51.7</ele>
    <time>2024-07-02T15:40:40Z</time>
   </trkpt>
   <trkpt lat="52.8454320" lon="-6.9409230">
    <ele>51.7</ele>
    <time>2024-07-02T15:40:41Z</time>
   </trkpt>
   <trkpt lat="52.8454320" lon="-6.9409230">
    <ele>51.7</ele>
    <time>2024-07-02T15:40:42Z</time>
   </trkpt>
   <trkpt lat="52.8454320" lon="-6.9409230">
    <ele>51.7</ele>
    <time>2024-07-02T15:40:43Z</time>
   </trkpt>
   <trkpt lat="52.8454320" lon="-6.9409230">
    <ele>51.7</ele>
    <time>2024-07-02T15:40:44Z</time>
   </trkpt>
   <trkpt lat="52.8454320" lon="-6.9409230">
    <ele>51.7</ele>
    <time>2024-07-02T15:40:45Z</time>
   </trkpt>
   <trkpt lat="52.8454320" lon="-6.9409230">
    <ele>51.7</ele>
    <time>2024-07-02T15:40:46Z</time>
   </trkpt>
   <trkpt lat="52.8454320" lon="-6.9409230">
    <ele>51.7</ele>
    <time>2024-07-02T15:40:47Z</time>
   </trkpt>
   <trkpt lat="52.8454320" lon="-6.9409230">
    <ele>51.7</ele>
    <time>2024-07-02T15:40:48Z</time>
   </trkpt>
   <trkpt lat="52.8454320" lon="-6.9409230">
    <ele>51.7</ele>
    <time>2024-07-02T15:40:49Z</time>
   </trkpt>
   <trkpt lat="52.8454320" lon="-6.9409230">
    <ele>51.7</ele>
    <time>2024-07-02T15:40:50Z</time>
   </trkpt>
   <trkpt lat="52.8454320" lon="-6.9409230">
    <ele>51.7</ele>
    <time>2024-07-02T15:40:51Z</time>
   </trkpt>
   <trkpt lat="52.8454320" lon="-6.9409230">
    <ele>51.7</ele>
    <time>2024-07-02T15:40:52Z</time>
   </trkpt>
   <trkpt lat="52.8454320" lon="-6.9409230">
    <ele>51.7</ele>
    <time>2024-07-02T15:40:53Z</time>
   </trkpt>
   <trkpt lat="52.8454320" lon="-6.9409230">
    <ele>51.7</ele>
    <time>2024-07-02T15:40:54Z</time>
   </trkpt>
   <trkpt lat="52.8454320" lon="-6.9409230">
    <ele>51.7</ele>
    <time>2024-07-02T15:40:55Z</time>
   </trkpt>
   <trkpt lat="52.8454320" lon="-6.9409230">
    <ele>51.7</ele>
    <time>2024-07-02T15:40:56Z</time>
   </trkpt>
   <trkpt lat="52.8454320" lon="-6.9409230">
    <ele>51.7</ele>
    <time>2024-07-02T15:40:57Z</time>
   </trkpt>
   <trkpt lat="52.8454320" lon="-6.9409230">
    <ele>51.7</ele>
    <time>2024-07-02T15:40:58Z</time>
   </trkpt>
   <trkpt lat="52.8454320" lon="-6.9409230">
    <ele>51.7</ele>
    <time>2024-07-02T15:40:59Z</time>
   </trkpt>
   <trkpt lat="52.8454320" lon="-6.9409230">
    <ele>51.7</ele>
    <time>2024-07-02T15:41:00Z</time>
   </trkpt>
   <trkpt lat="52.8454320" lon="-6.9409230">
    <ele>51.7</ele>
    <time>2024-07-02T15:41:01Z</time>
   </trkpt>
   <trkpt lat="52.8454320" lon="-6.9409230">
    <ele>51.7</ele>
    <time>2024-07-02T15:41:02Z</time>
   </trkpt>
   <trkpt lat="52.8454320" lon="-6.9409230">
    <ele>51.7</ele>
    <time>2024-07-02T15:41:03Z</time>
   </trkpt>
   <trkpt lat="52.8454320" lon="-6.9409230">
    <ele>51.7</ele>
    <time>2024-07-02T15:41:04Z</time>
   </trkpt>
   <trkpt lat="52.8454320" lon="-6.9409230">
    <ele>51.7</ele>
    <time>2024-07-02T15:41:05Z</time>
   </trkpt>
   <trkpt lat="52.8454320" lon="-6.9409230">
    <ele>51.7</ele>
    <time>2024-07-02T15:41:06Z</time>
   </trkpt>
   <trkpt lat="52.8454320" lon="-6.9409230">
    <ele>51.7</ele>
    <time>2024-07-02T15:41:07Z</time>
   </trkpt>
   <trkpt lat="52.8454320" lon="-6.9409230">
    <ele>51.7</ele>
    <time>2024-07-02T15:41:08Z</time>
   </trkpt>
   <trkpt lat="52.8454320" lon="-6.9409230">
    <ele>51.7</ele>
    <time>2024-07-02T15:41:09Z</time>
   </trkpt>
   <trkpt lat="52.8454320" lon="-6.9409230">
    <ele>51.7</ele>
    <time>2024-07-02T15:41:10Z</time>
   </trkpt>
   <trkpt lat="52.8454320" lon="-6.9409230">
    <ele>51.7</ele>
    <time>2024-07-02T15:41:11Z</time>
   </trkpt>
   <trkpt lat="52.8454320" lon="-6.9409230">
    <ele>51.7</ele>
    <time>2024-07-02T15:41:12Z</time>
   </trkpt>
   <trkpt lat="52.8454320" lon="-6.9409230">
    <ele>51.7</ele>
    <time>2024-07-02T15:41:13Z</time>
   </trkpt>
   <trkpt lat="52.8454320" lon="-6.9409230">
    <ele>51.7</ele>
    <time>2024-07-02T15:41:14Z</time>
   </trkpt>
   <trkpt lat="52.8454320" lon="-6.9409230">
    <ele>51.7</ele>
    <time>2024-07-02T15:41:15Z</time>
   </trkpt>
   <trkpt lat="52.8454320" lon="-6.9409230">
    <ele>51.7</ele>
    <time>2024-07-02T15:41:16Z</time>
   </trkpt>
   <trkpt lat="52.8454320" lon="-6.9409230">
    <ele>51.7</ele>
    <time>2024-07-02T15:41:17Z</time>
   </trkpt>
   <trkpt lat="52.8454320" lon="-6.9409230">
    <ele>51.7</ele>
    <time>2024-07-02T15:41:18Z</time>
   </trkpt>
   <trkpt lat="52.8454320" lon="-6.9409230">
    <ele>51.7</ele>
    <time>2024-07-02T15:41:19Z</time>
   </trkpt>
   <trkpt lat="52.8454320" lon="-6.9409230">
    <ele>51.7</ele>
    <time>2024-07-02T15:41:20Z</time>
   </trkpt>
   <trkpt lat="52.8454320" lon="-6.9409230">
    <ele>51.7</ele>
    <time>2024-07-02T15:41:21Z</time>
   </trkpt>
   <trkpt lat="52.8454320" lon="-6.9409230">
    <ele>51.7</ele>
    <time>2024-07-02T15:41:22Z</time>
   </trkpt>
   <trkpt lat="52.8454320" lon="-6.9409230">
    <ele>51.7</ele>
    <time>2024-07-02T15:41:23Z</time>
   </trkpt>
   <trkpt lat="52.8454320" lon="-6.9409230">
    <ele>51.7</ele>
    <time>2024-07-02T15:41:24Z</time>
   </trkpt>
   <trkpt lat="52.8454320" lon="-6.9409230">
    <ele>51.7</ele>
    <time>2024-07-02T15:41:25Z</time>
   </trkpt>
   <trkpt lat="52.8454320" lon="-6.9409230">
    <ele>51.7</ele>
    <time>2024-07-02T15:41:26Z</time>
   </trkpt>
   <trkpt lat="52.8454320" lon="-6.9409230">
    <ele>51.7</ele>
    <time>2024-07-02T15:41:27Z</time>
   </trkpt>
   <trkpt lat="52.8454320" lon="-6.9409230">
    <ele>51.7</ele>
    <time>2024-07-02T15:41:28Z</time>
   </trkpt>
   <trkpt lat="52.8454320" lon="-6.9409230">
    <ele>51.7</ele>
    <time>2024-07-02T15:41:29Z</time>
   </trkpt>
   <trkpt lat="52.8454320" lon="-6.9409230">
    <ele>51.7</ele>
    <time>2024-07-02T15:41:30Z</time>
   </trkpt>
   <trkpt lat="52.8454320" lon="-6.9409230">
    <ele>51.7</ele>
    <time>2024-07-02T15:41:31Z</time>
   </trkpt>
   <trkpt lat="52.8454320" lon="-6.9409230">
    <ele>51.7</ele>
    <time>2024-07-02T15:41:32Z</time>
   </trkpt>
   <trkpt lat="52.8454320" lon="-6.9409230">
    <ele>51.7</ele>
    <time>2024-07-02T15:41:33Z</time>
   </trkpt>
   <trkpt lat="52.8454320" lon="-6.9409230">
    <ele>51.7</ele>
    <time>2024-07-02T15:41:34Z</time>
   </trkpt>
   <trkpt lat="52.8454320" lon="-6.9409230">
    <ele>51.7</ele>
    <time>2024-07-02T15:41:35Z</time>
   </trkpt>
   <trkpt lat="52.8454320" lon="-6.9409230">
    <ele>51.7</ele>
    <time>2024-07-02T15:41:36Z</time>
   </trkpt>
   <trkpt lat="52.8454320" lon="-6.9409230">
    <ele>51.7</ele>
    <time>2024-07-02T15:41:37Z</time>
   </trkpt>
   <trkpt lat="52.8454320" lon="-6.9409230">
    <ele>51.7</ele>
    <time>2024-07-02T15:41:38Z</time>
   </trkpt>
   <trkpt lat="52.8454320" lon="-6.9409230">
    <ele>51.7</ele>
    <time>2024-07-02T15:41:39Z</time>
   </trkpt>
   <trkpt lat="52.8454320" lon="-6.9409230">
    <ele>51.7</ele>
    <time>2024-07-02T15:41:40Z</time>
   </trkpt>
   <trkpt lat="52.8454320" lon="-6.9409230">
    <ele>51.7</ele>
    <time>2024-07-02T15:41:41Z</time>
   </trkpt>
   <trkpt lat="52.8454320" lon="-6.9409230">
    <ele>51.7</ele>
    <time>2024-07-02T15:41:42Z</time>
   </trkpt>
   <trkpt lat="52.8454320" lon="-6.9409230">
    <ele>51.7</ele>
    <time>2024-07-02T15:41:43Z</time>
   </trkpt>
   <trkpt lat="52.8454320" lon="-6.9409230">
    <ele>51.7</ele>
    <time>2024-07-02T15:41:44Z</time>
   </trkpt>
   <trkpt lat="52.8454320" lon="-6.9409230">
    <ele>51.7</ele>
    <time>2024-07-02T15:41:45Z</time>
   </trkpt>
   <trkpt lat="52.8454320" lon="-6.9409230">
    <ele>51.7</ele>
    <time>2024-07-02T15:41:46Z</time>
   </trkpt>
   <trkpt lat="52.8454320" lon="-6.9409230">
    <ele>51.7</ele>
    <time>2024-07-02T15:41:47Z</time>
   </trkpt>
   <trkpt lat="52.8454320" lon="-6.9409230">
    <ele>51.7</ele>
    <time>2024-07-02T15:41:48Z</time>
   </trkpt>
   <trkpt lat="52.8454320" lon="-6.9409230">
    <ele>51.7</ele>
    <time>2024-07-02T15:41:49Z</time>
   </trkpt>
   <trkpt lat="52.8454320" lon="-6.9409230">
    <ele>51.7</ele>
    <time>2024-07-02T15:41:50Z</time>
   </trkpt>
   <trkpt lat="52.8454320" lon="-6.9409230">
    <ele>51.7</ele>
    <time>2024-07-02T15:41:51Z</time>
   </trkpt>
   <trkpt lat="52.8454320" lon="-6.9409230">
    <ele>51.7</ele>
    <time>2024-07-02T15:41:52Z</time>
   </trkpt>
   <trkpt lat="52.8454320" lon="-6.9409230">
    <ele>51.7</ele>
    <time>2024-07-02T15:41:53Z</time>
   </trkpt>
   <trkpt lat="52.8454320" lon="-6.9409230">
    <ele>51.7</ele>
    <time>2024-07-02T15:41:54Z</time>
   </trkpt>
   <trkpt lat="52.8454320" lon="-6.9409230">
    <ele>51.7</ele>
    <time>2024-07-02T15:41:55Z</time>
   </trkpt>
   <trkpt lat="52.8454320" lon="-6.9409230">
    <ele>51.7</ele>
    <time>2024-07-02T15:41:56Z</time>
   </trkpt>
   <trkpt lat="52.8454320" lon="-6.9409230">
    <ele>51.7</ele>
    <time>2024-07-02T15:41:57Z</time>
   </trkpt>
   <trkpt lat="52.8454320" lon="-6.9409230">
    <ele>51.7</ele>
    <time>2024-07-02T15:41:58Z</time>
   </trkpt>
   <trkpt lat="52.8454320" lon="-6.9409230">
    <ele>51.7</ele>
    <time>2024-07-02T15:41:59Z</time>
   </trkpt>
   <trkpt lat="52.8454320" lon="-6.9409230">
    <ele>51.7</ele>
    <time>2024-07-02T15:42:00Z</time>
   </trkpt>
   <trkpt lat="52.8454320" lon="-6.9409230">
    <ele>51.7</ele>
    <time>2024-07-02T15:42:01Z</time>
   </trkpt>
   <trkpt lat="52.8454320" lon="-6.9409230">
    <ele>51.7</ele>
    <time>2024-07-02T15:42:02Z</time>
   </trkpt>
   <trkpt lat="52.8454320" lon="-6.9409230">
    <ele>51.7</ele>
    <time>2024-07-02T15:42:03Z</time>
   </trkpt>
  </trkseg>
 </trk>
</gpx>
